"","CROP.WILD.RELATIVE","Crop","GENEPOOL","GRAFTSTOCK","TRAIT","ONTOLOGY","BREEDING.TYPE","ACC_NUM","NAME","RECD_AS","RECD_HOW","RECD_DT","PROV_TYPE","PSOURCE_FULL","PSOURCE_ACC_NUM","PSOURCE_MISC","COLL_NAME","COUNTRY_FULL","BRU_FULL","SUB_CNT1","SUB_CNT2","SUB_CNT3","LAND_OWNER","LOCALITY","LATITUDE_DECIMAL","LONGITUDE_DECIMAL","ALTITUDE","ALTITUDE_UNIT","HABITAT","X","X.1","variant"
"1","Abies balsamea","Fir",NA,NA,NA,NA,NA,"20190408","Abies balsamea 'Nana'","Abies balsamea 'Nana'","plant","22-Oct-19","from a cultivated plant not of known wild origin","Connon N NVK","","","","",NA,"","","","","","","",".",".","","","","Nana'"
"2","Abies balsamea","Fir",NA,NA,NA,NA,NA,"851034","Abies balsamea","Abies balsamea","unknown propagule type","","uncertain","Unknown","","","","",NA,"","","","","","","",".",".","","","",""
"3","Abies balsamea","Fir",NA,NA,NA,NA,NA,"20160387","Abies balsamea","Abies balsamea","plant","15-Nov-16","from a cultivated plant not of known wild origin","Connon N NVK","A01400100PT","","","",NA,"","","","","","","",".",".","","","",""
"4","Abies balsamea","Fir",NA,NA,NA,NA,NA,"20120593","Abies balsamea 'Nana'","Abies balsamea 'Nana'","plant","23-Aug-12","from a cultivated plant not of known wild origin","Connon N CVK","","","","",NA,"","","","","","","",".",".","","","","Nana'"
"5","Abies balsamea","Fir",NA,NA,NA,NA,NA,"75201","Abies balsamea","Abies balsamea","plant","22-May-75","collected directly from wild; origin known","RBG","","","","Halward, R.",NA,"Canada","Ontario","Port Carling","","","","from wild area",".",".","","","",""
"6","Abies grandis","Fir",NA,NA,NA,NA,NA,"20180105","Abies grandis var. idahoensis","Abies grandis (interior)","plant","28-May-18","cultivated plant of known (indirect) wild origin","Fox Hollow Farms","","","","",13,"Canada","British Columbia","Interior Mountains","","","","",".",".","","","","idahoensis"
"7","Abies lasiocarpa","Fir",NA,NA,NA,NA,NA,"20020327","Abies lasiocarpa 'Compacta'","Abies lasiocarpa 'Compacta'","plant","01-Aug-02","from a cultivated plant not of known wild origin","Vineland N","","","","",NA,"","","","","","","",".",".","","","","Compacta'"
"8","Abies lasiocarpa","Fir",NA,NA,NA,NA,NA,"990093","Abies lasiocarpa 'Compacta'","Abies lasiostylos `Compacta'","plant","19-Apr-99","from a cultivated plant not of known wild origin","Canadale Nurseries","","","","",NA,"","","","","","","",".",".","","","","Compacta'"
"9","Abies lasiocarpa","Fir",NA,NA,NA,NA,NA,"800391","Abies lasiocarpa 'Arizonica Compacta'","Abies lasiocarpa var. arizonica 'Compacta'","plant","20-May-80","from a cultivated plant not of known wild origin","Sheridan Nurseries","","","","",NA,"","","","","","","",".",".","","","","Arizonica Compacta'"
"10","Abies lasiocarpa","Fir",NA,NA,NA,NA,NA,"20010190","Abies lasiocarpa 'Compacta'","Abies lasiocarpa 'Compacta'","plant","23-Aug-01","from a cultivated plant not of known wild origin","Connon N NVK","","","","",NA,"","","","","","","",".",".","","","","Compacta'"
"11","Abies lasiocarpa","Fir",NA,NA,NA,NA,NA,"20170030","Abies lasiocarpa","Abies lasiocarpa","plant","17-May-17","from a cultivated plant not of known wild origin","Whistling Gardens:Iseli Nursery",":",":",":","",NA,"","","","","","","",".",".","","","",""
"12","Acer negundo","Maple",NA,NA,NA,NA,NA,"75002","Acer negundo","Acer negundo","plant","11-Mar-71","collected directly from wild; origin known","RBG","","","","",NA,"Canada","Ontario","Burlington","","","","From Hendrie Valley near Lamb's Hollow Bridge to Arb. Native tree and shrub col. area #4",".",".","","","",""
"13","Acer negundo","Maple",NA,NA,NA,NA,NA,"900563","Acer negundo 'Kelly's Gold'","","plant","11-Jun-90","from a cultivated plant not of known wild origin","Duncan & Davies N","","","","",NA,"","","","","","","",".",".","","","","Kelly's Gold'"
"14","Acer pensylvanicum","Maple",NA,NA,NA,NA,NA,"XA10123","Acer pensylvanicum","Acer pensylvanicum","plant","","uncertain","Unknown","","","","",NA,"","","","","","","",".",".","","","",""
"15","Acer pensylvanicum","Maple",NA,NA,NA,NA,NA,"20190200","Acer pensylvanicum","Acer pensylvanicum","plant","24-Apr-19","from a cultivated plant not of known wild origin","Winkelmolen Nursery","","","","",NA,"","","","","","","",".",".","","","",""
"16","Acer rubrum","Maple",NA,NA,NA,NA,NA,"75637","Acer rubrum 'Tilford'","Acer rubrum 'Tilford'","plant","10-Nov-75","from a cultivated plant not of known wild origin","Sheridan Nurseries","","","","",NA,"","","","","","","",".",".","","","","Tilford'"
"17","Acer rubrum","Maple",NA,NA,NA,NA,NA,"20140287","Acer rubrum [Redpointe] = 'Frank Jr.'","Acer rubrum [Redpointe] = 'Frank Jr.'","plant","05-Aug-14","from a cultivated plant not of known wild origin","Connon N CVK","","","","",NA,"","","","","","","",".",".","","","","Redpointe] = 'Frank Jr.'"
"18","Acer rubrum","Maple",NA,NA,NA,NA,NA,"820294","Acer rubrum 'Bowhall'","Acer rubrum 'Bowhall'","plant","06-May-82","from a cultivated plant not of known wild origin","Hortico Nursery","","","","",NA,"","","","","","","",".",".","","","","Bowhall'"
"19","Acer rubrum","Maple",NA,NA,NA,NA,NA,"64072","Acer rubrum 'Gerling'","Acer rubrum 'Gerling'","plant","29-Apr-64","from a cultivated plant not of known wild origin","Scanlon N","","","","",NA,"","","","","","","",".",".","","","","Gerling'"
"20","Acer rubrum","Maple",NA,NA,NA,NA,NA,"20150179","Acer rubrum [Red Sunset] = 'Franksred'","Acer rubrum [Red Sunset] = 'Franksred'","plant","24-Sep-15","from a cultivated plant not of known wild origin","Connon N NVK","","","","",NA,"","","","","","","",".",".","","","","Red Sunset] = 'Franksred'"
"21","Acer rubrum","Maple",NA,NA,NA,NA,NA,"68022","Acer rubrum 'Schlesingeri'","Acer rubrum 'Schlesingeri'","plant","17-Apr-68","from a cultivated plant not of known wild origin","Sheridan Nurseries","","","","",NA,"","","","","","","",".",".","","","","Schlesingeri'"
"22","Acer rubrum","Maple",NA,NA,NA,NA,NA,"66242","Acer rubrum 'Tilford'","Acer rubrum 'Tilford'","plant","10-May-66","from a cultivated plant not of known wild origin","Scanlon N","","","","",NA,"","","","","","","",".",".","","","","Tilford'"
"23","Acer rubrum","Maple",NA,NA,NA,NA,NA,"20090185","Acer rubrum [Red Sunset] = 'Franksred'","Acer rubrum [Red Sunset] = 'Franksred'","plant","11-May-09","from a cultivated plant not of known wild origin","Poa","","","","",NA,"","","","","","","",".",".","","","","Red Sunset] = 'Franksred'"
"24","Acer rubrum","Maple",NA,NA,NA,NA,NA,"20000170","Acer rubrum","Acer rubrum","plant","08-Nov-99","from a cultivated plant not of known wild origin","Aldershot L","","","","",NA,"","","","","","","",".",".","","","",""
"25","Acer rubrum","Maple",NA,NA,NA,NA,NA,"810611","Acer rubrum","Acer rubrum","plant","02-Jul-81","from a cultivated plant not of known wild origin","Connon N","","","","",NA,"","","","","","","",".",".","","","",""
"26","Acer rubrum","Maple",NA,NA,NA,NA,NA,"72347","Acer rubrum","Acer rubrum","plant","30-Nov-72","from a cultivated plant not of known wild origin","Sheridan Nurseries","","","","",NA,"","","","","","","",".",".","","","",""
"27","Acer rubrum","Maple",NA,NA,NA,NA,NA,"XA10137","Acer rubrum","Acer rubrum","plant","","uncertain","Spontaneous","","","","",NA,"","","","","","","",".",".","","","",""
"28","Acer rubrum","Maple",NA,NA,NA,NA,NA,"20080040","Acer rubrum","Acer rubrum","plant","09-Oct-08","from a cultivated plant not of known wild origin","Humber N","","","","",NA,"","","","","","","",".",".","","","",""
"29","Acer rubrum","Maple",NA,NA,NA,NA,NA,"70124","Acer rubrum 'Scanlon'","Acer rubrum 'Scanlon'","plant","15-Apr-70","from a cultivated plant not of known wild origin","Sheridan Nurseries","","","","",NA,"","","","","","","",".",".","","","","Scanlon'"
"30","Acer rubrum","Maple",NA,NA,NA,NA,NA,"50040","Acer rubrum","Acer rubrum","plant","26-Apr-50","from a cultivated plant not of known wild origin","Sheridan Nurseries","","","","",NA,"","","","","","","",".",".","","","",""
"31","Acer rubrum","Maple",NA,NA,NA,NA,NA,"64071","Acer rubrum 'Scanlon'","Acer rubrum 'Scanlon'","plant","29-Apr-64","from a cultivated plant not of known wild origin","Scanlon N","","","","",NA,"","","","","","","",".",".","","","","Scanlon'"
"32","Acer rubrum","Maple",NA,NA,NA,NA,NA,"67716","Acer rubrum 'Gerling'","Acer rubrum 'Gerling'","plant","21-Nov-67","from a cultivated plant not of known wild origin","Scanlon N","","","","",NA,"","","","","","","",".",".","","","","Gerling'"
"33","Acer rubrum","Maple",NA,NA,NA,NA,NA,"20000130","Acer rubrum","Acer rubrum","plant","19-Nov-99","from a cultivated plant not of known wild origin","Connon N NVK","","","","",NA,"","","","","","","",".",".","","","",""
"34","Acer rubrum","Maple",NA,NA,NA,NA,NA,"20170225","Acer rubrum [ARMSTRONG GOLD] = 'JFS-KW78'","Acer rubrum [ARMSTRONG GOLD] = 'JFS-KW78'","plant","02-Oct-17","from a cultivated plant not of known wild origin","Connon N NVK","","","","",NA,"","","","","","","",".",".","","","","ARMSTRONG GOLD] = 'JFS-KW78'"
"35","Acer rubrum","Maple",NA,NA,NA,NA,NA,"990146","Acer rubrum 'Northwood'","Acer rubrum 'Northwood'","plant","26-May-99","from a cultivated plant not of known wild origin","Kraus N","","","","",NA,"","","","","","","",".",".","","","","Northwood'"
"36","Acer rubrum","Maple",NA,NA,NA,NA,NA,"840821","Acer rubrum 'Karpick'","Acer rubrum 'Karpick'","plant","18-May-84","from a cultivated plant not of known wild origin","Sheridan Nurseries","","","","",NA,"","","","","","","",".",".","","","","Karpick'"
"37","Acer saccharinum","Maple",NA,NA,NA,NA,NA,"870964","Acer saccharinum","Acer saccharinum","plant","28-Oct-87","from a cultivated plant not of known wild origin","RBG","","","","",NA,"","","","","","","",".",".","","","",""
"38","Acer saccharinum","Maple",NA,NA,NA,NA,NA,"20100294","Acer saccharinum 'Silver Pyramid'","Acer saccharinum 'Silver Pyramid'","plant","15-May-10","from a cultivated plant not of known wild origin","Kraus N","","","","",NA,"","","","","","","",".",".","","","","Silver Pyramid'"
"39","Acer saccharinum","Maple",NA,NA,NA,NA,NA,"75200","Acer saccharinum","Acer saccharinum","plant","27-May-75","from a cultivated plant not of known wild origin","Sheridan Nurseries","","","","",NA,"","","","","","","",".",".","","","",""
"40","Acer saccharinum","Maple",NA,NA,NA,NA,NA,"67668","Acer saccharinum 'Laciniatum'","Acer saccharinum 'Laciniatum'","plant","06-Nov-67","from a cultivated plant not of known wild origin","Pfrimmer","","","","",NA,"","","","","","","",".",".","","","","Laciniatum'"
"41","Acer saccharum","Maple",NA,NA,NA,NA,NA,"XX215","Acer saccharum","Acer saccharum","unknown propagule type","","uncertain","Unknown","","","","",NA,"","","","","","","",".",".","","","",""
"42","Acer saccharum","Maple",NA,NA,NA,NA,NA,"20150284","Acer saccharum","Acer saccharum","plant","15-Apr-15","from a cultivated plant not of known wild origin","Iseli Nursery","","","","",NA,"","","","","","","",".",".","","","",""
"43","Acer saccharum","Maple",NA,NA,NA,NA,NA,"990148","Acer saccharum 'Sweet Shadow'","Acer saccharum 'Sweet Shadow'","plant","26-May-99","from a cultivated plant not of known wild origin","Kraus N","","","","",NA,"","","","","","","",".",".","","","","Sweet Shadow'"
"44","Acer saccharum","Maple",NA,NA,NA,NA,NA,"20170271","Acer saccharum [APOLLO] = 'Barrett Cole'","Acer saccharum APOLLO","plant","","from a cultivated plant not of known wild origin","Connon N NVK","","","","",NA,"","","","","","","",".",".","","","","APOLLO] = 'Barrett Cole'"
"45","Acer saccharum","Maple",NA,NA,NA,NA,NA,"990133","Acer saccharum subsp. nigrum 'Green Column'","Acer nigrum 'Green Column'","plant","21-May-99","from a cultivated plant not of known wild origin","Kraus N","","","","",NA,"","","","","","","",".",".","","",""," nigrum 'Green Column'"
"46","Acer saccharum","Maple",NA,NA,NA,NA,NA,"20150563","Acer saccharum subsp. nigrum 'Green Column'","Acer nigrum 'Green Column'","plant","01-Jul-14","from a cultivated plant not of known wild origin","Connon N NVK","","","","",NA,"","","","","","","",".",".","","",""," nigrum 'Green Column'"
"47","Acer saccharum","Maple",NA,NA,NA,NA,NA,"20170316","Acer saccharum subsp. nigrum 'Green Column'","Acer nigrum 'Greencolumn'","plant","30-Oct-17","from a cultivated plant not of known wild origin","Connon N NVK","A06500801WB","","","",NA,"","","","","","","",".",".","","",""," nigrum 'Green Column'"
"48","Acer saccharum","Maple",NA,NA,NA,NA,NA,"20140456","Acer saccharum 'Bonfire'","Acer saccharum 'Bonfire'","plant","15-Oct-14","from a cultivated plant not of known wild origin","Connon N NVK","","","","",NA,"","","","","","","",".",".","","","","Bonfire'"
"49","Acer saccharum","Maple",NA,NA,NA,NA,NA,"841801","Acer saccharum","Acer saccharum","plant","01-Jul-84","from a cultivated plant not of known wild origin","RBG","","","","",NA,"","","","","","","",".",".","","","",""
"50","Acer saccharum","Maple",NA,NA,NA,NA,NA,"20170069","Acer saccharum","Acer saccharum","plant","23-May-17","from a cultivated plant not of known wild origin","St. Williams Nursery","","","","",NA,"","","","","","","",".",".","","","",""
"51","Acer saccharum","Maple",NA,NA,NA,NA,NA,"66241","Acer saccharum 'Senecaense'","Acer x senecaense","plant","10-May-66","from a cultivated plant not of known wild origin","Scanlon N","","","","",NA,"","","","","","","",".",".","","","","Senecaense'"
"52","Acer saccharum","Maple",NA,NA,NA,NA,NA,"20110170","Acer saccharum 'Endowment'","Acer saccharum 'Endowment'","plant","26-Sep-11","from a cultivated plant not of known wild origin","Connon N NVK","","","","",NA,"","","","","","","",".",".","","","","Endowment'"
"53","Acer saccharum","Maple",NA,NA,NA,NA,NA,"20190201","Acer saccharum 'Temple's Upright'","Acer saccharum 'Temple's Upright'","plant","24-Apr-19","from a cultivated plant not of known wild origin","Winkelmolen Nursery","","","","",NA,"","","","","","","",".",".","","","","Temple's Upright'"
"54","Acer saccharum","Maple",NA,NA,NA,NA,NA,"20190194","Acer saccharum 'Flax Mill Majesty'","Acer saccharum 'Flax Mill Majesty'","plant","24-Apr-19","from a cultivated plant not of known wild origin","Winkelmolen Nursery","","","","",NA,"","","","","","","",".",".","","","","Flax Mill Majesty'"
"55","Acer saccharum","Maple",NA,NA,NA,NA,NA,"901075","Acer saccharum","Acer saccharum","plant","16-Oct-90","from a cultivated plant not of known wild origin","Connon N","","","","",NA,"","","","","","","",".",".","","","",""
"56","Acer saccharum","Maple",NA,NA,NA,NA,NA,"950266","Acer saccharum 'Arrowhead'","Acer saccharum 'Arrowhead'","plant","07-Jun-95","from a cultivated plant not of known wild origin","Sheridan Nurseries","","","","",NA,"","","","","","","",".",".","","","","Arrowhead'"
"57","Acer saccharum","Maple",NA,NA,NA,NA,NA,"20080180","Acer saccharum var. saccharum","Acer nigrum","plant","12-Jun-08","from a cultivated plant not of known wild origin","Aldershot L:Sheridan Nurseries:Dutchmaster Nurseries Ltd.","::","::","::","",NA,"","","","","","","",".",".","","","","saccharum"
"58","Acer saccharum","Maple",NA,NA,NA,NA,NA,"73457","Acer saccharum 'Newton Sentry'","Acer saccharum 'Newton Sentry'","plant","01-Nov-73","from a cultivated plant not of known wild origin","Sheridan Nurseries","","","","",NA,"","","","","","","",".",".","","","","Newton Sentry'"
"59","Acer saccharum","Maple",NA,NA,NA,NA,NA,"20180230","Acer saccharum [AUTUMN FEST] = 'JFS-KW8'","AUTUMN FEST Sugar Maple - bud grafted on Acer saccharum","plant","20-Nov-18","from a cultivated plant not of known wild origin","Winkelmolen Nursery","","","","",NA,"","","","","","","",".",".","","","","AUTUMN FEST] = 'JFS-KW8'"
"60","Acer saccharum","Maple",NA,NA,NA,NA,NA,"20180231","Acer saccharum [FALL FIESTA] = 'Bailsta'","FALL FIESTA Sugar Maple bud grafted on Acer saccharum","plant","20-Nov-18","from a cultivated plant not of known wild origin","Winkelmolen Nursery","","","","",NA,"","","","","","","",".",".","","","","FALL FIESTA] = 'Bailsta'"
"61","Acer saccharum","Maple",NA,NA,NA,NA,NA,"20110169","Acer saccharum 'Legacy'","Acer saccharum 'Legacy'","plant","26-Sep-11","from a cultivated plant not of known wild origin","Connon N NVK","","","","",NA,"","","","","","","",".",".","","","","Legacy'"
"62","Acer saccharum","Maple",NA,NA,NA,NA,NA,"20110179","Acer saccharum 'Green Mountain'","Acer saccharum 'Green Mountain'","plant","26-Sep-11","from a cultivated plant not of known wild origin","Connon N NVK","","","","",NA,"","","","","","","",".",".","","","","Green Mountain'"
"63","Acer saccharum","Maple",NA,NA,NA,NA,NA,"75672","Acer saccharum","Acer saccharum","seed","01-Jul-75","from a cultivated plant not of known wild origin","RBG","","","","",NA,"","","","","","","",".",".","","","",""
"64","Acer saccharum","Maple",NA,NA,NA,NA,NA,"75006","Acer saccharum","Acer saccharum","plant","11-Mar-75","collected directly from wild; origin known","RBG","","","","",NA,"","","","","","","",".",".","","","",""
"65","Acer saccharum","Maple",NA,NA,NA,NA,NA,"990134","Acer saccharum 'Commemoration'","Acer saccharum 'Commemoration'","plant","21-May-99","from a cultivated plant not of known wild origin","Kraus N","","","","",NA,"","","","","","","",".",".","","","","Commemoration'"
"66","Agastache foeniculum","Hyssop",NA,NA,NA,NA,NA,"20080087","Agastache foeniculum","Agastache foeniculum","plant","02-Sep-08","from a cultivated plant not of known wild origin","Sheridan Nurseries:Frank Schenk",":",":",":","",NA,"","","","","","","",".",".","","","",""
"67","Agastache foeniculum","Hyssop",NA,NA,NA,NA,NA,"20150190","Agastache foeniculum","Agastache foeniculum","plant","28-Sep-15","from a cultivated plant not of known wild origin","Blue Sky Nursery","","","","",NA,"","","","","","","",".",".","","","",""
"68","Agastache foeniculum","Hyssop",NA,NA,NA,NA,NA,"20190349","Agastache foeniculum 'Golden Jubilee'","Agastache foeniculum 'Golden Jubilee'","seed","21-Jan-19","from a cultivated plant not of known wild origin","Ball","","","","",NA,"","","","","","","",".",".","","","","Golden Jubilee'"
"69","Agastache foeniculum","Hyssop",NA,NA,NA,NA,NA,"20150384","Agastache foeniculum 'Blue Fortune'","Agastache 'Blue Fortune'","plant","15-May-15","from a cultivated plant not of known wild origin","Connon N NVK","","","","",NA,"","","","","","","",".",".","","","","Blue Fortune'"
"70","Agastache foeniculum","Hyssop",NA,NA,NA,NA,NA,"20150191","Agastache foeniculum 'Golden Jubilee'","Agastache foeniculum 'Golden Jubilee'","plant","28-Sep-15","from a cultivated plant not of known wild origin","Blue Sky Nursery","","","","",NA,"","","","","","","",".",".","","","","Golden Jubilee'"
"71","Allium cernuum","Onion",NA,NA,NA,NA,NA,"20140339","Allium cernuum","Allium cernuum","plant","19-Sep-14","from a cultivated plant not of known wild origin","RBG Auxiliary:Environs",":",":",":","",NA,"","","","","","","",".",".","","","",""
"72","Allium cernuum","Onion",NA,NA,NA,NA,NA,"20080088","Allium cernuum","Allium cernuum","plant","02-Sep-08","from a cultivated plant not of known wild origin","Sheridan Nurseries:Chalk Lake Greenhouses",":",":",":","",NA,"","","","","","","",".",".","","","",""
"73","Allium cernuum","Onion",NA,NA,NA,NA,NA,"20150146","Allium cernuum","Allium cernuum","plant","09-Sep-15","from a cultivated plant not of known wild origin","RBG Auxiliary","","","","",NA,"","","","","","","",".",".","","","",""
"74","Allium schoenoprasum","Onion","Tertiary","","",NA,"","20150192","Allium schoenoprasum 'Rising Star'","Allium schoenoprasum 'Rising Star'","plant","28-Sep-15","from a cultivated plant not of known wild origin","Blue Sky Nursery","","","","",NA,"","","","","","","",".",".","","","","Rising Star'"
"75","Allium schoenoprasum","Onion","Tertiary","","",NA,"","20150387","Allium schoenoprasum 'Rising Star'","Allium schoenoprasum 'Rising Star'","plant","15-May-15","from a cultivated plant not of known wild origin","Connon N NVK","","","","",NA,"","","","","","","",".",".","","","","Rising Star'"
"76","Amelanchier arborea","Saskatoon",NA,NA,NA,NA,NA,"810657","Amelanchier arborea","Amelanchier arborea","plant","","collected directly from wild; origin known","RBG","","","","",NA,"","","","","","","",".",".","","","",""
"77","Amelanchier canadensis","Saskatoon",NA,NA,NA,NA,NA,"20080181","Amelanchier canadensis","Amelanchier canadensis","plant","12-Jun-08","from a cultivated plant not of known wild origin","Aldershot L:Sheridan Nurseries:Triangle Nursery","::","::","::","",NA,"","","","","","","",".",".","","","",""
"78","Amelanchier canadensis","Saskatoon",NA,NA,NA,NA,NA,"74035","Amelanchier canadensis","Amelanchier canadensis","plant","16-Apr-74","from a cultivated plant not of known wild origin","Redleaf N","","","","",NA,"","","","","","","",".",".","","","",""
"79","Amelanchier canadensis","Saskatoon",NA,NA,NA,NA,NA,"50478","Amelanchier canadensis","Amelanchier canadensis","plant","16-Nov-50","from a cultivated plant not of known wild origin","Kohankie N","","","","",NA,"","","","","","","",".",".","","","",""
"80","Amelanchier canadensis","Saskatoon",NA,NA,NA,NA,NA,"20000143","Amelanchier canadensis","Amelanchier canadensis","plant","31-Dec-67","from a cultivated plant not of known wild origin","Braun N","","","","",NA,"","","","","","","",".",".","","","",""
"81","Amelanchier canadensis","Saskatoon",NA,NA,NA,NA,NA,"880828","Amelanchier canadensis","Amelanchier canadensis","plant","01-Apr-88","from a cultivated plant not of known wild origin","Holland Pk Burlington","","","","",NA,"","","","","","","",".",".","","","",""
"82","Amelanchier canadensis","Saskatoon",NA,NA,NA,NA,NA,"840834","Amelanchier canadensis","Amelanchier canadensis","plant","18-May-84","from a cultivated plant not of known wild origin","Brookdale-Kingsway N","","","","",NA,"","","","","","","",".",".","","","",""
"83","Amelanchier canadensis","Saskatoon",NA,NA,NA,NA,NA,"920975","Amelanchier canadensis","Amelanchier canadensis","plant","05-Oct-92","from a cultivated plant not of known wild origin","Connon N NVK","","","","",NA,"","","","","","","",".",".","","","",""
"84","Amelanchier canadensis","Saskatoon",NA,NA,NA,NA,NA,"790190","Amelanchier canadensis","Amelanchier canadensis","plant","11-May-79","from a cultivated plant not of known wild origin","Connon N","","","","",NA,"","","","","","","",".",".","","","",""
"85","Amelanchier canadensis","Saskatoon",NA,NA,NA,NA,NA,"900532","Amelanchier canadensis","","plant","04-Jun-90","from a cultivated plant not of known wild origin","Connon N","","","","",NA,"","","","","","","",".",".","","","",""
"86","Amelanchier intermedia","Saskatoon",NA,NA,NA,NA,NA,"20100527","Amelanchier intermedia","Amelanchier intermedia","plant","12-Aug-10","from a cultivated plant not of known wild origin","Connon N NVK","","","","",NA,"","","","","","","",".",".","","","",""
"87","Amelanchier laevis","Saskatoon",NA,NA,NA,NA,NA,"72101","Amelanchier laevis","Amelanchier laevis","plant","08-May-72","from a cultivated plant not of known wild origin","Sheridan Nurseries","","","","",NA,"","","","","","","",".",".","","","",""
"88","Amelanchier laevis","Saskatoon",NA,NA,NA,NA,NA,"20090593","Amelanchier laevis","Amelanchier canadensis","plant","01-Jul-09","from a cultivated plant not of known wild origin","Aldershot L","","","","",NA,"","","","","","","",".",".","","","",""
"89","Amelanchier laevis","Saskatoon",NA,NA,NA,NA,NA,"20080182","Amelanchier laevis","Amelanchier laevis","plant","12-Jun-08","from a cultivated plant not of known wild origin","Aldershot L:Sheridan Nurseries:Dutchmaster Nurseries Ltd.","::","::","::","",NA,"","","","","","","",".",".","","","",""
"90","Amelanchier laevis","Saskatoon",NA,NA,NA,NA,NA,"20140713","Amelanchier laevis","Amelanchier laevis","plant","15-Oct-14","from a cultivated plant not of known wild origin","Connon N NVK","","","","",NA,"","","","","","","",".",".","","","",""
"91","Amelanchier laevis","Saskatoon",NA,NA,NA,NA,NA,"950055","Amelanchier laevis","Amelanchier laevis","plant","26-Apr-95","from a cultivated plant not of known wild origin","Sheridan Nurseries","","","","",NA,"","","","","","","",".",".","","","",""
"92","Andropogon gerardii","Bluestem",NA,NA,NA,NA,NA,"20140293","Andropogon gerardii","Andropogon gerardii","plant","19-Aug-14","from a cultivated plant not of known wild origin","Acorus Restoration","","","","",NA,"","","","","","","",".",".","","","",""
"93","Andropogon gerardii","Bluestem",NA,NA,NA,NA,NA,"20080138","Andropogon gerardii","Andropogon gerardii","plant","02-Sep-08","from a cultivated plant not of known wild origin","Sheridan Nurseries:Chalk Lake Greenhouses",":",":",":","",NA,"","","","","","","",".",".","","","",""
"94","Asimina triloba","Pawpaw",NA,NA,NA,NA,NA,"20140714","Asimina triloba","Asimina triloba","plant","15-Oct-14","from a cultivated plant not of known wild origin","Connon N NVK","","","","",NA,"","","","","","","",".",".","","","",""
"95","Asimina triloba","Pawpaw",NA,NA,NA,NA,NA,"20080184","Asimina triloba","Asimina triloba","plant","12-Jun-08","from a cultivated plant not of known wild origin","Aldershot L:Sheridan Nurseries:Scenic Hills Nursery","::","::","::","",NA,"","","","","","","",".",".","","","",""
"96","Asimina triloba","Pawpaw",NA,NA,NA,NA,NA,"61836","Asimina triloba","Asimina triloba","seed","07-Nov-61","from a cultivated plant not of known wild origin","Meyers","","","","",NA,"","","","","","","",".",".","","","",""
"97","Betula lenta","Birch",NA,NA,NA,NA,NA,"75611","Betula lenta","Betula lenta","seed","01-Jul-72","collected directly from wild; origin known","RBG","","","","",NA,"Canada","Ontario","Jordan Harbour","","","","",".",".","","","",""
"98","Betula lenta","Birch",NA,NA,NA,NA,NA,"810284","Betula lenta","Betula lenta","seed","30-Mar-81","collected directly from wild; origin known","U Guelph Arb","","","","",NA,"Canada","Ontario","Niagara Reg.","","","","Louth Tp.","43.18333","-79.31666","84","M","steep slope above Lake Ontario",""
"99","Betula papyrifera","Birch",NA,NA,NA,NA,NA,"XX528","Betula papyrifera","Betula papyrifera","unknown propagule type","","uncertain","Unknown","","","","",NA,"","","","","","","",".",".","","","",""
"100","Betula papyrifera","Birch",NA,NA,NA,NA,NA,"920295","Betula papyrifera","Betula papyrifera","plant","21-Apr-92","from a cultivated plant not of known wild origin","RBG","","","","",NA,"","","","","","","",".",".","","","",""
"101","Betula papyrifera","Birch",NA,NA,NA,NA,NA,"XX218","Betula papyrifera","Betula papyrifera","unknown propagule type","","uncertain","Unknown","","","","",NA,"","","","","","","",".",".","","","",""
"102","Betula papyrifera","Birch",NA,NA,NA,NA,NA,"20140715","Betula papyrifera","Betula papyrifera","plant","15-Oct-14","from a cultivated plant not of known wild origin","Connon N NVK","","","","",NA,"","","","","","","",".",".","","","",""
"103","Betula papyrifera","Birch",NA,NA,NA,NA,NA,"XX245","Betula papyrifera","Betula papyrifera","unknown propagule type","","uncertain","Unknown","","","","",NA,"","","","","","","",".",".","","","",""
"104","Betula papyrifera","Birch",NA,NA,NA,NA,NA,"20160272","Betula papyrifera","Betula papyrifera","plant","28-Sep-16","from a cultivated plant not of known wild origin","Winkelmolen Nursery","","","","",NA,"","","","","","","",".",".","","","",""
"105","Betula papyrifera","Birch",NA,NA,NA,NA,NA,"75060","Betula papyrifera","Betula papyrifera","plant","07-May-75","from a cultivated plant not of known wild origin","Connon N","","","","",NA,"","","","","","","",".",".","","","",""
"106","Betula papyrifera","Birch",NA,NA,NA,NA,NA,"XX213","Betula papyrifera","Betula papyrifera","unknown propagule type","","uncertain","Unknown","","","","",NA,"","","","","","","",".",".","","","",""
"107","Betula papyrifera","Birch",NA,NA,NA,NA,NA,"XA10832","Betula papyrifera","Betula papyrifera","unknown propagule type","","uncertain","Unknown","","","","",NA,"","","","","","","",".",".","","","",""
"108","Betula papyrifera","Birch",NA,NA,NA,NA,NA,"20120654","Betula papyrifera","Betula papyrifera","plant","09-Sep-12","from a cultivated plant not of known wild origin","Connon N NVK","","","","",NA,"","","","","","","",".",".","","","",""
"109","Betula papyrifera","Birch",NA,NA,NA,NA,NA,"20160261","Betula papyrifera","Betula papyrifera","plant","27-Sep-16","from a cultivated plant not of known wild origin","Connon N NVK","","","","",NA,"","","","","","","",".",".","","","",""
"110","Betula populifolia","Birch",NA,NA,NA,NA,NA,"851039","Betula populifolia","Betula populifolia","seed","25-Mar-85","collected directly from wild; origin known","Can For Ser S Bank","","","","",NA,"Canada","Ontario","Ottawa","","","","COL. OTTAWA, CA 45.24, 75.33, 70m single tree","45.4","-75.55","","","",""
"111","Betula populifolia","Birch",NA,NA,NA,NA,NA,"51453","Betula populifolia","Betula populifolia","plant","04-May-51","from a cultivated plant not of known wild origin","Kohankie N","","","","",NA,"","","","","","","",".",".","","","",""
"112","Betula populifolia","Birch",NA,NA,NA,NA,NA,"900701","Betula populifolia","Betula populifolia","seed","06-Jun-90","collected directly from wild; origin known","Holden Arb","","","","",NA,"United States","Ohio","Lucas County","","","","Louis W. Campbell State Nature Preserve",".",".","","","",""
"113","Betula populifolia","Birch",NA,NA,NA,NA,NA,"840051","Betula populifolia 'Whitespire'","Betula platyphylla var. japonica 'White Spire'","seed","18-Jan-84","from a cultivated plant not of known wild origin","U Wis Arb","","","","",NA,"","","","","","","",".",".","","","","Whitespire'"
"114","Betula populifolia","Birch",NA,NA,NA,NA,NA,"72104","Betula populifolia","Betula populifolia","plant","08-May-72","from a cultivated plant not of known wild origin","Sheridan Nurseries","","","","",NA,"","","","","","","",".",".","","","",""
"115","Betula populifolia","Birch",NA,NA,NA,NA,NA,"800360","Betula populifolia","Betula populifolia","plant","12-May-80","from a cultivated plant not of known wild origin","Sheridan Nurseries","","","","",NA,"","","","","","","",".",".","","","",""
"116","Betula populifolia","Birch",NA,NA,NA,NA,NA,"20100292","Betula populifolia","Betula populifolia","plant","01-Jul-10","from a cultivated plant not of known wild origin","Aldershot L","","","","",NA,"","","","","","","",".",".","","","",""
"117","Carya cordiformis","Hickory","Primary","","",NA,"","71226","Carya cordiformis","Carya cordiformis","plant","03-May-71","from a cultivated plant not of known wild origin","Butwick","","","","",NA,"","","","","","","",".",".","","","",""
"118","Carya cordiformis","Hickory","Primary","","",NA,"","940465","Carya cordiformis","Carya cordiformis","plant","19-Jul-94","from a cultivated plant not of known wild origin","Somers Trees","","","","",NA,"","","","","","","",".",".","","","",""
"119","Carya cordiformis","Pecan/hickory","Primary","","",NA,"","71226","Carya cordiformis","Carya cordiformis","plant","03-May-71","from a cultivated plant not of known wild origin","Butwick","","","","",NA,"","","","","","","",".",".","","","",""
"120","Carya cordiformis","Pecan/hickory","Primary","","",NA,"","940465","Carya cordiformis","Carya cordiformis","plant","19-Jul-94","from a cultivated plant not of known wild origin","Somers Trees","","","","",NA,"","","","","","","",".",".","","","",""
"121","Carya ovata","Pecan/hickory","Primary","","",NA,"","XA11106","Carya ovata","Carya ovata","unknown propagule type","","uncertain","Unknown","","","","",NA,"","","","","","","",".",".","","","",""
"122","Carya ovata","Pecan/hickory","Primary","","",NA,"","75010","Carya ovata","Carya ovata","plant","01-Jul-71","collected directly from wild; origin known","RBG","","","","",NA,"Canada","Ontario","Royal Botanical Gardens","","","","From Old Rhodo site-wild area",".",".","","","",""
"123","Carya ovata","Pecan/hickory","Primary","","",NA,"","XX216","Carya ovata","Carya ovata","unknown propagule type","","uncertain","Unknown","","","","",NA,"","","","","","","",".",".","","","",""
"124","Carya ovata","Hickory","Primary","","",NA,"","XA11106","Carya ovata","Carya ovata","unknown propagule type","","uncertain","Unknown","","","","",NA,"","","","","","","",".",".","","","",""
"125","Carya ovata","Hickory","Primary","","",NA,"","75010","Carya ovata","Carya ovata","plant","01-Jul-71","collected directly from wild; origin known","RBG","","","","",NA,"Canada","Ontario","Royal Botanical Gardens","","","","From Old Rhodo site-wild area",".",".","","","",""
"126","Carya ovata","Hickory","Primary","","",NA,"","XX216","Carya ovata","Carya ovata","unknown propagule type","","uncertain","Unknown","","","","",NA,"","","","","","","",".",".","","","",""
"127","Castanea dentata","Chestnut","Secondary","","",NA,"","20150177","Castanea dentata","Castanea dentata - #32 NT & #54 NT","seedling","03-Sep-15","collected directly from wild; origin known","RBG - Natural Lands","","","obtained from Dragan Galic","",NA,"Canada","Ontario","Dundas","Paddy Green Rd.","","","Dundas mother tree","43.22069","-80.02657","","","",""
"128","Castanea dentata","Chestnut","Secondary","","",NA,"","20150177","Castanea dentata","Castanea dentata - #32 NT & #54 NT","seedling","03-Sep-15","collected directly from wild; origin known","RBG - Natural Lands","","","obtained from Dragan Galic","",NA,"Canada","Ontario","Dundas","Paddy Green Rd.","","","Dundas mother tree","43.22069","-80.02657","","","",""
"129","Celtis occidentalis","Hackberry, Ornamental","","Graftstock","",NA,"","74576","Celtis occidentalis","Celtis occidentalis","plant","13-Nov-74","from a cultivated plant not of known wild origin","Sheridan Nurseries","","","","",NA,"","","","","","","",".",".","","","",""
"130","Celtis occidentalis","Hackberry, Ornamental","","Graftstock","",NA,"","70126","Celtis occidentalis","Celtis occidentalis","plant","15-Apr-70","from a cultivated plant not of known wild origin","Sheridan Nurseries","","","","",NA,"","","","","","","",".",".","","","",""
"131","Celtis occidentalis","Hackberry, Ornamental","","Graftstock","",NA,"","790180","Celtis occidentalis","Celtis occidentalis","plant","24-May-79","from a cultivated plant not of known wild origin","Sheridan Nurseries","","","","",NA,"","","","","","","",".",".","","","",""
"132","Celtis occidentalis","Hackberry, Ornamental","","Graftstock","",NA,"","20080186","Celtis occidentalis","Celtis occidentalis","plant","12-Jun-08","from a cultivated plant not of known wild origin","Aldershot L:Sheridan Nurseries",":",":",":","",NA,"","","","","","","",".",".","","","",""
"133","Celtis occidentalis","Hackberry, Ornamental","","Graftstock","",NA,"","940301","Celtis occidentalis","Celtis occidentalis","plant","09-Jun-94","from a cultivated plant not of known wild origin","Little Otter Tree Farm","","","","",NA,"","","","","","","",".",".","","","",""
"134","Corylus americana","Hazelnut","Secondary","","Biotic",NA,"Disease Resistance (B)","20170072","Corylus americana","Corylus americana","plant","23-May-17","from a cultivated plant not of known wild origin","St. Williams Nursery","","","","",NA,"","","","","","","",".",".","","","",""
"135","Corylus cornuta","Hazelnut","Tertiary","","Biotic",NA,"Disease Resistance (B)","20080191","Corylus cornuta subsp. cornuta","Corylus cornuta ssp. cornuta","plant","12-Jun-08","from a cultivated plant not of known wild origin","Aldershot L:Sheridan Nurseries:Cannor N","::","::","::","",NA,"","","","","","","",".",".","","",""," cornuta"
"136","Elymus canadensis","Wild Rye","Tertiary","","",NA,"","20080143","Elymus canadensis","Elymus canadensis","plant","02-Sep-08","from a cultivated plant not of known wild origin","Sheridan Nurseries:Chalk Lake Greenhouses",":",":",":","",NA,"","","","","","","",".",".","","","",""
"137","Elymus hystrix","Wild Rye","Tertiary","","",NA,"","20080144","Elymus hystrix","Hystrix patula","plant","02-Sep-08","from a cultivated plant not of known wild origin","Sheridan Nurseries:Chalk Lake Greenhouses",":",":",":","",NA,"","","","","","","",".",".","","","",""
"138","Fagus grandifolia","Beech",NA,NA,NA,NA,NA,"960134","Fagus grandifolia","Fagus grandifolia","plant","17-May-96","from a cultivated plant not of known wild origin","Connon N NVK","","","","",NA,"","","","","","","",".",".","","","",""
"139","Fagus grandifolia","Beech",NA,NA,NA,NA,NA,"20080179","Fagus grandifolia","Fagus grandifolia","plant","12-Jun-08","from a cultivated plant not of known wild origin","Aldershot L:Sheridan Nurseries:Solty Garden Centre","::","::","::","",NA,"","","","","","","",".",".","","","",""
"140","Fagus grandifolia","Beech",NA,NA,NA,NA,NA,"20140718","Fagus grandifolia","Fagus grandifolia","plant","15-Oct-14","from a cultivated plant not of known wild origin","Connon N NVK","","","","",NA,"","","","","","","",".",".","","","",""
"141","Fragaria vesca","Strawberry","Tertiary","","Biotic",NA,"Disease Resistance (B)","891021","Fragaria vesca","","seed","20-Jul-89","from a cultivated plant not of known wild origin","Komarov BG Leningrad","","","","",NA,"","","","","","","",".",".","","","",""
"142","Fraxinus americana","Ash",NA,NA,NA,NA,NA,"XX220","Fraxinus americana","Fraxinus americana","unknown propagule type","","uncertain","Unknown","","","","",NA,"","","","","","","",".",".","","","",""
"143","Fraxinus americana","Ash",NA,NA,NA,NA,NA,"790191","Fraxinus americana 'Manitou'","Fraxinus americana 'Manitou'","plant","09-May-79","from a cultivated plant not of known wild origin","Sheridan Nurseries","","","","",NA,"","","","","","","",".",".","","","","Manitou'"
"144","Fraxinus americana","Ash",NA,NA,NA,NA,NA,"840823","Fraxinus americana 'Manitou'","Fraxinus americana 'Manitou'","plant","03-May-84","from a cultivated plant not of known wild origin","Sheridan Nurseries","","","","",NA,"","","","","","","",".",".","","","","Manitou'"
"145","Fraxinus americana","Ash",NA,NA,NA,NA,NA,"790206","Fraxinus americana 'Kleinburg'","Fraxinus americana 'Kleinburg'","plant","30-May-79","from a cultivated plant not of known wild origin","Sheridan Nurseries","","","","",NA,"","","","","","","",".",".","","","","Kleinburg'"
"146","Fraxinus nigra","Ash",NA,NA,NA,NA,NA,"54739","Fraxinus nigra","Fraxinus nigra","plant","01-Jul-54","from a cultivated plant not of known wild origin","Kohankie N","","","","",NA,"","","","","","","",".",".","","","",""
"147","Fraxinus pennsylvanica","Ash",NA,NA,NA,NA,NA,"950048","Fraxinus pennsylvanica [Cimmaron] = 'Cimmzam'","Fraxinus 'Cimmaron'","plant","25-Apr-95","from a cultivated plant not of known wild origin","Bakker N","","","","",NA,"","","","","","","",".",".","","","","Cimmaron] = 'Cimmzam'"
"148","Fraxinus pennsylvanica","Ash",NA,NA,NA,NA,NA,"XX221","Fraxinus pennsylvanica","Fraxinus pennsylvanica","unknown propagule type","","uncertain","Unknown","","","","",NA,"","","","","","","",".",".","","","",""
"149","Fraxinus pennsylvanica","Ash",NA,NA,NA,NA,NA,"72102","Fraxinus pennsylvanica","Fraxinus pennsylvanica lanceolata, (subintegerrima)","plant","01-Jan-72","from a cultivated plant not of known wild origin","Sheridan Nurseries","","","","",NA,"","","","","","","",".",".","","","",""
"150","Fraxinus pennsylvanica","Ash",NA,NA,NA,NA,NA,"20020179","Fraxinus pennsylvanica [Cimmaron] = 'Cimmzam'","Fraxinus pennsylvanica 'Cimmzam' Cimmaron","plant","13-Jun-02","from a cultivated plant not of known wild origin","Connon N NVK","","","","",NA,"","","","","","","",".",".","","","","Cimmaron] = 'Cimmzam'"
"151","Fraxinus quadrangulata","Ash",NA,NA,NA,NA,NA,"74778","Fraxinus quadrangulata","Fraxinus quadrangulata","scion","01-Jul-74","from a cultivated plant not of known wild origin","RBG","64505","","","",NA,"","","","","","","",".",".","","","",""
"152","Fraxinus quadrangulata","Ash",NA,NA,NA,NA,NA,"50194","Fraxinus quadrangulata","Fraxinus quadrangulata","plant","01-Jul-50","uncertain","OMNR St Williams","","","","",NA,"","","","","","","",".",".","","","",""
"153","Fraxinus quadrangulata","Ash",NA,NA,NA,NA,NA,"920756","Fraxinus quadrangulata","Fraxinus quadrangulata","plant","22-Apr-92","from a cultivated plant not of known wild origin","RBG","","","","",NA,"","","","","","","",".",".","","","",""
"154","Fraxinus quadrangulata","Ash",NA,NA,NA,NA,NA,"75014","Fraxinus quadrangulata","Fraxinus quadrangulata","plant","01-Jul-71","collected directly from wild; origin known","RBG","","","","",NA,"Canada","Ontario","Royal Botanical Gardens","","","","",".",".","","","",""
"155","Fraxinus quadrangulata","Ash",NA,NA,NA,NA,NA,"930791","Fraxinus quadrangulata","Fraxinus quadrangulata","plant","01-Jul-93","from a cultivated plant not of known wild origin","Little Otter Tree Farm","","","","",NA,"","","","","","","",".",".","","","",""
"156","Fraxinus quadrangulata","Ash",NA,NA,NA,NA,NA,"64505","Fraxinus quadrangulata","Fraxinus quadrangulata","seed","01-Jul-64","uncertain","RBG","","","","",NA,"","","","","","","",".",".","","","",""
"157","Hamamelis virginiana","Witch-Hazel","","Graftstock","",NA,"","20140175","Hamamelis virginiana 'Champlin's Red'","Hamamelis virginiana 'Champlin's Red'","plant","06-Jun-14","from a cultivated plant not of known wild origin","Brotzman's Nursery","","","","",NA,"","","","","","","",".",".","","","","Champlin's Red'"
"158","Hamamelis virginiana","Witch-Hazel","","Graftstock","",NA,"","XA12851","Hamamelis virginiana","Hamamelis virginiana","plant","","collected directly from wild; origin known","RBG Property","","","","",NA,"","","","","","","",".",".","","","",""
"159","Hamamelis virginiana","Witch-Hazel","","Graftstock","",NA,"","20140719","Hamamelis virginiana","Hamamelis virginiana","plant","15-Oct-14","from a cultivated plant not of known wild origin","Connon N NVK","","","","",NA,"","","","","","","",".",".","","","",""
"160","Hamamelis virginiana","Witch-Hazel","","Graftstock","",NA,"","20160274","Hamamelis virginiana","Hamamelis virginiana","plant","28-Sep-16","from a cultivated plant not of known wild origin","Winkelmolen Nursery","","","","",NA,"","","","","","","",".",".","","","",""
"161","Hamamelis virginiana","Witch-Hazel","","Graftstock","",NA,"","20080178","Hamamelis virginiana","Hamamelis virginiana","plant","12-Jun-08","from a cultivated plant not of known wild origin","Aldershot L:Sheridan Nurseries:Scenic Hills Nursery","::","::","::","",NA,"","","","","","","",".",".","","","",""
"162","Hamamelis virginiana","Witch-Hazel","","Graftstock","",NA,"","72228","Hamamelis virginiana","Hamamelis virginiana","plant","01-Jul-72","from a cultivated plant not of known wild origin","Sheridan Nurseries","","","","",NA,"","","","","","","",".",".","","","",""
"163","Hamamelis virginiana","Witch-Hazel","","Graftstock","",NA,"","940286","Hamamelis virginiana","Hamamelis virginiana","plant","01-May-94","from a cultivated plant not of known wild origin","Connon N NVK","","","","",NA,"","","","","","","",".",".","","","",""
"164","Hamamelis virginiana","Witch-Hazel","","Graftstock","",NA,"","940147","Hamamelis virginiana","Hamamelis virginiana","plant","19-May-94","from a cultivated plant not of known wild origin","Hortico Nursery","","","","",NA,"","","","","","","",".",".","","","",""
"165","Helianthus strumosus","Sunflower","Tertiary","","",NA,"","20160291","Helianthus strumosus","Helianthus strumosus","plant","28-Sep-16","from a cultivated plant not of known wild origin","St. Williams Nursery","","","","",NA,"","","","","","","",".",".","","","",""
"166","Humulus lupulus","Hop","","","",NA,"","XA13287","Humulus lupulus","Humulus lupulus","plant","","uncertain","Unknown","","","","",NA,"","","","","","","",".",".","","","",""
"167","Juglans cinerea","Walnut","","","",NA,"","62614","Juglans cinerea","Juglans cinerea","seed","01-Jan-62","from a cultivated plant not of known wild origin","Broman","","","","",NA,"","","","","","","",".",".","","","",""
"168","Juglans nigra","Walnut","","","",NA,"","XX568","Juglans nigra","Juglans nigra","plant","","uncertain","Unknown","","","","",NA,"","","","","","","",".",".","","","",""
"169","Juglans nigra","Walnut","","","",NA,"","75015","Juglans nigra","Juglans nigra","plant","","collected directly from wild; origin known","RBG","","","","",NA,"Canada","","Ontario","Hamilton","","","RBG-ARB",".",".","","","",""
"170","Juglans nigra","Walnut","","","",NA,"","XA14660","Juglans nigra","Juglans nigra","existing plant","","uncertain","RBG Property","","","","",NA,"","","","","","","",".",".","","","",""
"171","Juglans nigra","Walnut","","","",NA,"","870979","Juglans nigra","","plant","","from a cultivated plant not of known wild origin","RBG","","","","",NA,"","","","","","","",".",".","","","",""
"172","Juglans nigra","Walnut","","","",NA,"","XX224","Juglans nigra","Juglans nigra","unknown propagule type","","uncertain","Unknown","","","","",NA,"","","","","","","",".",".","","","",""
"173","Larix laricina","Larch",NA,NA,NA,NA,NA,"20080175","Larix laricina","Larix laricina","plant","12-Jun-08","from a cultivated plant not of known wild origin","Aldershot L:Sheridan Nurseries:Dutchmaster Nurseries Ltd.","::","::","::","",NA,"","","","","","","",".",".","","","",""
"174","Larix laricina","Larch",NA,NA,NA,NA,NA,"65641","Larix laricina","Larix laricina","seed","01-Jul-65","collected directly from wild; origin known","RBG","","","","R. Halward",NA,"Canada","Ontario","Matheson","","","","",".",".","","","",""
"175","Larix laricina","Larch",NA,NA,NA,NA,NA,"800146","Larix laricina","Larix laricina","seed","07-Mar-80","collected directly from wild; origin known","U Wis Arb","","","","",NA,"United States","Wisconsin","","","","","","43.3","-89.43333","865","FT","CONIFER SWAMP",""
"176","Magnolia acuminata","Magnolia","Progenitor","","Agronomic",NA,"Ornamental Features (AG)","64493","Magnolia acuminata","Magnolia acuminata","seed","01-Jul-64","from a cultivated plant not of known wild origin","Jackson E M","","","","",NA,"","","","","","","",".",".","","","",""
"177","Magnolia acuminata","Magnolia","Progenitor","","Agronomic",NA,"Ornamental Features (AG)","72184","Magnolia acuminata","Magnolia acuminata","seed","01-Jul-72","from a cultivated plant not of known wild origin","Rochester","","","","",NA,"","","","","","","",".",".","","","",""
"178","Magnolia acuminata","Magnolia","Progenitor","","Agronomic",NA,"Ornamental Features (AG)","601171","Magnolia acuminata","Magnolia acuminata","seed","01-Jul-60","collected directly from wild; origin known","Halward","","","","R. HALWARD",NA,"Canada","","Ontario","Hamilton","","","MAIN ST. WEST",".",".","","","",""
"179","Magnolia acuminata","Magnolia","Progenitor","","Agronomic",NA,"Ornamental Features (AG)","20140201","Magnolia acuminata var. subcordata 'Miss Honeybee'","Magnolia acuminata ssp. subcordata 'Miss Honeybee'","plant","06-Jun-14","from a cultivated plant not of known wild origin","Brotzman's Nursery","","","","",NA,"","","","","","","",".",".","","","","subcordata 'Miss Honeybee'"
"180","Magnolia acuminata","Magnolia","Progenitor","","Agronomic",NA,"Ornamental Features (AG)","20140200","Magnolia acuminata 'Koban Dori'","Magnolia acuminata 'Koban Dori'","plant","06-Jun-14","from a cultivated plant not of known wild origin","Brotzman's Nursery","","","","",NA,"","","","","","","",".",".","","","","Koban Dori'"
"181","Malus coronaria","Apple","Tertiary","","",NA,"","73075","Malus coronaria var. dasycalyx","Malus coronaria var. dasycalyx","plant","01-Jul-73","from a cultivated plant not of known wild origin","RBG","","","","",NA,"","","","","","","",".",".","","","","dasycalyx"
"182","Mentha arvensis","Mint",NA,NA,NA,NA,NA,"990560","Mentha arvensis var. piperascens","Mentha arvensis var. piperascens","plant","20-Sep-99","from a cultivated plant not of known wild origin","Richters","","","","",NA,"","","","","","","",".",".","","","","piperascens"
"183","Monarda fistulosa","Monarda",NA,NA,NA,NA,NA,"20180083","Monarda fistulosa","Monarda fistulosa","plant","15-May-18","from a cultivated plant not of known wild origin","Connon N NVK","","","","",NA,"","","","","","","",".",".","","","",""
"184","Monarda fistulosa","Monarda",NA,NA,NA,NA,NA,"20100547","Monarda fistulosa","Monarda fistulosa","plant","17-Sep-10","from a cultivated plant not of known wild origin","Connon N NVK","","","","",NA,"","","","","","","",".",".","","","",""
"185","Monarda fistulosa","Monarda",NA,NA,NA,NA,NA,"20160338","Monarda fistulosa","Monarda fistulosa","plant","25-Oct-16","from a cultivated plant not of known wild origin","Millgrove Perennials","","","","",NA,"","","","","","","",".",".","","","",""
"186","Monarda fistulosa","Monarda",NA,NA,NA,NA,NA,"20080116","Monarda fistulosa","Monarda fistulosa","plant","02-Sep-08","from a cultivated plant not of known wild origin","Sheridan Nurseries:Chalk Lake Greenhouses",":",":",":","",NA,"","","","","","","",".",".","","","",""
"187","Oenothera biennis","Evening primrose",NA,NA,NA,NA,NA,"XA15865","Oenothera biennis","Oenothera biennis","unknown propagule type","","uncertain","Unknown","","","","",NA,"","","","","","","",".",".","","","",""
"188","Panicum virgatum","Proso millet","","","",NA,"","20170100","Panicum virgatum 'Dallas Blues'","Panicum virgatum 'Dallas Blues'","plant","26-May-17","from a cultivated plant not of known wild origin","Millgrove Perennials","","","","",NA,"","","","","","","",".",".","","","","Dallas Blues'"
"189","Panicum virgatum","Proso millet","","","",NA,"","20150507","Panicum virgatum 'Cheyenne Sky'","Panicum virgatum 'Cheyenne Sky'","plant","15-May-15","from a cultivated plant not of known wild origin","Connon N NVK","","","","",NA,"","","","","","","",".",".","","","","Cheyenne Sky'"
"190","Panicum virgatum","Proso millet","","","",NA,"","20190332","Panicum virgatum 'Cloud Nine'","Panicum virgatum 'Cloud Nine'","plant","05-Jun-19","from a cultivated plant not of known wild origin","Connon N NVK","","","","",NA,"","","","","","","",".",".","","","","Cloud Nine'"
"191","Panicum virgatum","Proso millet","","","",NA,"","20080148","Panicum virgatum 'Heavy Metal'","Panicum virgatum 'Heavy Metal'","plant","05-Sep-08","from a cultivated plant not of known wild origin","Sheridan Nurseries:Oka Fleurs",":",":",":","",NA,"","","","","","","",".",".","","","","Heavy Metal'"
"192","Panicum virgatum","Proso millet","","","",NA,"","20170101","Panicum virgatum 'Heavy Metal'","Panicum virgatum 'Heavy Metal'","plant","26-May-17","from a cultivated plant not of known wild origin","Millgrove Perennials","","","","",NA,"","","","","","","",".",".","","","","Heavy Metal'"
"193","Panicum virgatum","Proso millet","","","",NA,"","20150508","Panicum virgatum 'Northwind'","Panicum virgatum 'Northwind'","plant","15-May-15","from a cultivated plant not of known wild origin","Connon N NVK","","","","",NA,"","","","","","","",".",".","","","","Northwind'"
"194","Panicum virgatum","Proso millet","","","",NA,"","20080147","Panicum virgatum 'Cloud Nine'","Panicum virgatum 'Cloud Nine'","plant","05-Sep-08","from a cultivated plant not of known wild origin","Sheridan Nurseries:Oka Fleurs",":",":",":","",NA,"","","","","","","",".",".","","","","Cloud Nine'"
"195","Panicum virgatum","Proso millet","","","",NA,"","20190291","Panicum virgatum 'Northwind'","Panicum virgatum 'Northwind'","plant","13-Jun-19","from a cultivated plant not of known wild origin","Connon Nurseries - Robson Road","","","","",NA,"","","","","","","",".",".","","","","Northwind'"
"196","Panicum virgatum","Proso millet","","","",NA,"","20080146","Panicum virgatum","Panicum virgatum","plant","02-Sep-08","from a cultivated plant not of known wild origin","Sheridan Nurseries:Chalk Lake Greenhouses",":",":",":","",NA,"","","","","","","",".",".","","","",""
"197","Panicum virgatum","Proso millet","","","",NA,"","20190244","Panicum virgatum 'Blood Brothers'","Panicum virgatum 'Blood Brothers'","plant","03-Jun-19","from a cultivated plant not of known wild origin","Millgrove Perennials","","","","",NA,"","","","","","","",".",".","","","","Blood Brothers'"
"198","Panicum virgatum","Proso millet","","","",NA,"","20160148","Panicum virgatum 'Prairie Fire'","Panicum virgatum 'Prairie Fire'","plant","11-Jul-16","from a cultivated plant not of known wild origin","Millgrove Perennials","","","","",NA,"","","","","","","",".",".","","","","Prairie Fire'"
"199","Panicum virgatum","Proso millet","","","",NA,"","20080150","Panicum virgatum 'Shenandoah'","Panicum virgatum 'Shenandoah'","plant","05-Sep-08","from a cultivated plant not of known wild origin","Sheridan Nurseries:Oka Fleurs",":",":",":","",NA,"","","","","","","",".",".","","","","Shenandoah'"
"200","Panicum virgatum","Proso millet","","","",NA,"","20160340","Panicum virgatum 'Shenandoah'","Panicum virgatum 'Shenandoah'","plant","25-Oct-16","from a cultivated plant not of known wild origin","Millgrove Perennials","","","","",NA,"","","","","","","",".",".","","","","Shenandoah'"
"201","Panicum virgatum","Proso millet","","","",NA,"","20080149","Panicum virgatum 'Rubrum'","Panicum virgatum 'Rubrum'","plant","05-Sep-08","from a cultivated plant not of known wild origin","Sheridan Nurseries:Oka Fleurs",":",":",":","",NA,"","","","","","","",".",".","","","","Rubrum'"
"202","Panicum virgatum","Proso millet","","","",NA,"","20170102","Panicum virgatum 'Prairie Sky'","Panicum virgatum 'Prairie Sky'","plant","26-May-17","from a cultivated plant not of known wild origin","Millgrove Perennials","","","","",NA,"","","","","","","",".",".","","","","Prairie Sky'"
"203","Panicum virgatum","Proso millet","","","",NA,"","20190246","Panicum virgatum 'Rotstrahlbusch'","Panicum virgatum 'Rotstrahlbusch'","plant","03-Jun-19","from a cultivated plant not of known wild origin","Millgrove Perennials","","","","",NA,"","","","","","","",".",".","","","","Rotstrahlbusch'"
"204","Picea glauca","Spruce",NA,NA,NA,NA,NA,"XA16873","Picea glauca","Picea glauca","unknown propagule type","","uncertain","Unknown","","","","",NA,"","","","","","","",".",".","","","",""
"205","Picea glauca","Spruce",NA,NA,NA,NA,NA,"71281","Picea glauca","Picea glauca","plant","01-Jul-71","from a cultivated plant not of known wild origin","OMNR St Williams","","","","",NA,"","","","","","","",".",".","","","",""
"206","Picea glauca","Spruce",NA,NA,NA,NA,NA,"20200241","Picea glauca 'Ketch Harbor'","Picea glauca 'Ketch Harbor'","plant","01-Jun-20","from a cultivated plant not of known wild origin","Whistling Gardens","","","","",NA,"","","","","","","",".",".","","","","Ketch Harbor'"
"207","Picea glauca","Spruce",NA,NA,NA,NA,NA,"XA16876","Picea glauca 'Conica'","Picea glauca 'Conica'","unknown propagule type","","from a cultivated plant not of known wild origin","Unknown","","","","",NA,"","","","","","","",".",".","","","","Conica'"
"208","Picea glauca","Spruce",NA,NA,NA,NA,NA,"XA16883","Picea glauca var. albertiana 'Conica'","Picea glauca var. albertiana 'Conica'","unknown propagule type","","from a cultivated plant not of known wild origin","Unknown","","","","",NA,"","","","","","","",".",".","","","","albertiana 'Conica'"
"209","Picea glauca","Spruce",NA,NA,NA,NA,NA,"20170320","Picea glauca 'Pendula'","Picea glauca 'Pendula'","plant","13-Nov-17","from a cultivated plant not of known wild origin","Connon N NVK","","","","",NA,"","","","","","","",".",".","","","","Pendula'"
"210","Picea glauca","Spruce",NA,NA,NA,NA,NA,"XX531","Picea glauca","Picea glauca","unknown propagule type","","uncertain","Unknown","","","","",NA,"","","","","","","",".",".","","","",""
"211","Picea glauca","Spruce",NA,NA,NA,NA,NA,"64336","Picea glauca","Picea glauca","plant","01-Jul-64","uncertain","OMNR St Williams","","","","",NA,"","","","","","","",".",".","","","",""
"212","Picea glauca","Spruce",NA,NA,NA,NA,NA,"800147","Picea glauca","Picea glauca","seed","07-Mar-80","collected directly from wild; origin known","U Wis Arb","","","","",NA,"United States","Wisconsin","Wisconsin","","","","","43.3","-89.43333","865","FT","conifer swamp",""
"213","Picea glauca","Spruce",NA,NA,NA,NA,NA,"75071","Picea glauca","Picea glauca","plant","01-Jul-75","from a cultivated plant not of known wild origin","Sheridan Nurseries","","","","",NA,"","","","","","","",".",".","","","",""
"214","Picea glauca","Spruce",NA,NA,NA,NA,NA,"51190","Picea glauca 'Conica'","Picea glauca 'Conica'","existing plant","01-Jul-51","from a cultivated plant not of known wild origin","Unknown","","","","",NA,"","","","","","","",".",".","","","","Conica'"
"215","Picea glauca","Spruce",NA,NA,NA,NA,NA,"770106","Picea glauca","Picea glauca","seed","09-May-77","collected directly from wild; origin known","USNA","","","","",NA,"United States","","N.V.","Dutchess Co.","","","",".",".","","","",""
"216","Picea glauca","Spruce",NA,NA,NA,NA,NA,"20080346","Picea glauca","Picea glauca","plant","01-Jul-08","uncertain","Unknown","","","","",NA,"","","","","","","",".",".","","","",""
"217","Picea glauca","Spruce",NA,NA,NA,NA,NA,"20080028","Picea glauca 'Rainbow's End'","Picea glauca 'Rainbow's End'","plant","02-Jun-08","from a cultivated plant not of known wild origin","Vineland N","","","","",NA,"","","","","","","",".",".","","","","Rainbow's End'"
"218","Picea mariana","Spruce",NA,NA,NA,NA,NA,"20170034","Picea mariana 'Mont Tremblant'","Picea mariana 'Mont Tremblant'","plant","17-May-17","from a cultivated plant not of known wild origin","Whistling Gardens:Iseli Nursery",":",":",":","",NA,"","","","","","","",".",".","","","","Mont Tremblant'"
"219","Picea mariana","Spruce",NA,NA,NA,NA,NA,"65645","Picea mariana","Picea mariana","plant","01-Jul-65","collected directly from wild; origin known","RBG","","","","R. Halward",NA,"Canada","Ontario","Matheson","","","","",".",".","","","",""
"220","Picea rubens","Spruce",NA,NA,NA,NA,NA,"20180115","Picea rubens","Picea rubens","plant","28-May-18","from a cultivated plant not of known wild origin","Fox Hollow Farms","","","","",NA,"","","","","","","",".",".","","","",""
"221","Picea sitchensis","Spruce",NA,NA,NA,NA,NA,"20140560","Picea sitchensis 'Papoose'","Picea sitchensis 'Papoose'","plant","15-Oct-14","from a cultivated plant not of known wild origin","Iseli Nursery","","","","",NA,"","","","","","","",".",".","","","","Papoose'"
"222","Pinus banksiana","Pine",NA,NA,NA,NA,NA,"20140561","Pinus banksiana 'Uncle Fogy'","Pinus banksiana 'Uncle Fogy'","plant","15-Oct-14","from a cultivated plant not of known wild origin","Iseli Nursery","","","","",NA,"","","","","","","",".",".","","","","Uncle Fogy'"
"223","Pinus banksiana","Pine",NA,NA,NA,NA,NA,"XX227","Pinus banksiana","Pinus banksiana","unknown propagule type","","uncertain","Unknown","","","","",NA,"","","","","","","",".",".","","","",""
"224","Pinus contorta","Pine",NA,NA,NA,NA,NA,"20140068","Pinus contorta 'Taylor's Sunburst'","Pinus contorta 'Taylor's Sunburst'","plant","16-May-14","from a cultivated plant not of known wild origin","Iseli Nursery","675620AB","","","",NA,"","","","","","","",".",".","","","","Taylor's Sunburst'"
"225","Pinus flexilis","Pine",NA,NA,NA,NA,NA,"20150335","Pinus flexilis 'Extra Blue'","Pinus flexilis 'Extra Blue'","plant","15-Apr-15","from a cultivated plant not of known wild origin","Connon N NVK","","","","",NA,"","","","","","","",".",".","","","","Extra Blue'"
"226","Pinus flexilis","Pine",NA,NA,NA,NA,NA,"790342","Pinus flexilis 'Pendula'","Pinus flexilis 'Pendula'","scion","15-Jan-79","from a cultivated plant not of known wild origin","Orn Pl Spec N","","","","",NA,"","","","","","","",".",".","","","","Pendula'"
"227","Pinus flexilis","Pine",NA,NA,NA,NA,NA,"20180113","Pinus flexilis 'Reflexa'","Pinus flexilis 'Reflexa'","plant","28-May-18","from a cultivated plant not of known wild origin","Fox Hollow Farms","","","","",NA,"","","","","","","",".",".","","","","Reflexa'"
"228","Pinus flexilis","Pine",NA,NA,NA,NA,NA,"20150337","Pinus flexilis 'Vanderwolf's Pyramid'","Pinus flexilis 'Vanderwolf's Pyramid'","plant","15-Apr-15","from a cultivated plant not of known wild origin","Connon N NVK","","","","",NA,"","","","","","","",".",".","","","","Vanderwolf's Pyramid'"
"229","Pinus flexilis","Pine",NA,NA,NA,NA,NA,"20150336","Pinus flexilis 'Prostrata'","Pinus flexilis 'Prostrata'","plant","15-Apr-15","from a cultivated plant not of known wild origin","Connon N NVK","","","","",NA,"","","","","","","",".",".","","","","Prostrata'"
"230","Pinus resinosa","Pine",NA,NA,NA,NA,NA,"68055","Pinus resinosa","Pinus resinosa","plant","01-Jan-68","from a cultivated plant not of known wild origin","Ont Hydro","","","","",NA,"","","","","","","",".",".","","","",""
"231","Pinus resinosa","Pine",NA,NA,NA,NA,NA,"XX228","Pinus resinosa","Pinus resinosa","unknown propagule type","","uncertain","Unknown","","","","",NA,"","","","","","","",".",".","","","",""
"232","Pinus resinosa","Pine",NA,NA,NA,NA,NA,"901241","Pinus resinosa","Pinus resinosa","plant","01-Jan-90","from a cultivated plant not of known wild origin","RBG","XX228","","","",NA,"","","","","","","",".",".","","","",""
"233","Pinus resinosa","Pine",NA,NA,NA,NA,NA,"71282","Pinus resinosa","Pinus resinosa","plant","01-Jan-71","from a cultivated plant not of known wild origin","OMNR St Williams","","","","",NA,"","","","","","","",".",".","","","",""
"234","Pinus resinosa","Pine",NA,NA,NA,NA,NA,"20170049","Pinus resinosa","Pinus resinosa","plant","25-May-17","from a cultivated plant not of known wild origin","Connon N NVK","","","","",NA,"","","","","","","",".",".","","","",""
"235","Pinus resinosa","Pine",NA,NA,NA,NA,NA,"XA17014","Pinus resinosa","Pinus resinosa","plant","","uncertain","RBG Property","","","","",NA,"","","","","","","",".",".","","","",""
"236","Pinus strobus","Pine",NA,NA,NA,NA,NA,"20170163","Pinus strobus","Pinus strobus","plant","15-Nov-16","from a cultivated plant not of known wild origin","Connon N NVK","","","","",NA,"","","","","","","",".",".","","","",""
"237","Pinus strobus","Pine",NA,NA,NA,NA,NA,"XA17018","Pinus strobus","Pinus strobus","unknown propagule type","","uncertain","Unknown","","","","",NA,"","","","","","","",".",".","","","",""
"238","Pinus strobus","Pine",NA,NA,NA,NA,NA,"20090042","Pinus strobus","Pinus strobus","plant","06-Apr-09","from a cultivated plant not of known wild origin","Humber N","","","","",NA,"","","","","","","",".",".","","","",""
"239","Pinus strobus","Pine",NA,NA,NA,NA,NA,"20200246","Pinus strobus 'Golden Candles'","Pinus strobus 'Golden Candles'","plant","01-Jun-20","from a cultivated plant not of known wild origin","Whistling Gardens","","","","",NA,"","","","","","","",".",".","","","","Golden Candles'"
"240","Pinus strobus","Pine",NA,NA,NA,NA,NA,"20120926","Pinus strobus","Pinus strobus","plant","15-Sep-12","from a cultivated plant not of known wild origin","Connon N NVK","","","","",NA,"","","","","","","",".",".","","","",""
"241","Pinus strobus","Pine",NA,NA,NA,NA,NA,"XX229","Pinus strobus","Pinus strobus","unknown propagule type","","uncertain","Unknown","","","","",NA,"","","","","","","",".",".","","","",""
"242","Pinus strobus","Pine",NA,NA,NA,NA,NA,"20090592","Pinus strobus","Pinus strobus","plant","01-Jul-09","from a cultivated plant not of known wild origin","Aldershot L","","","","",NA,"","","","","","","",".",".","","","",""
"243","Pinus strobus","Pine",NA,NA,NA,NA,NA,"20160115","Pinus strobus 'Angel Falls'","Pinus strobus 'Angel Falls'","plant","17-May-16","from a cultivated plant not of known wild origin","Whistling Gardens:Iseli Nursery",":",":",":","",NA,"","","","","","","",".",".","","","","Angel Falls'"
"244","Pinus strobus","Pine",NA,NA,NA,NA,NA,"20080351","Pinus strobus","Pinus strobus","plant","01-Jul-08","uncertain","Unknown","","","","",NA,"","","","","","","",".",".","","","",""
"245","Pinus strobus","Pine",NA,NA,NA,NA,NA,"890081","Pinus strobus 'Merrimack'","","plant","","from a cultivated plant not of known wild origin","Vineland N","","","","",NA,"","","","","","","",".",".","","","","Merrimack'"
"246","Pinus strobus","Pine",NA,NA,NA,NA,NA,"20140569","Pinus strobus 'Louie'","Pinus strobus 'Louie'","plant","15-Oct-14","from a cultivated plant not of known wild origin","Iseli Nursery","","","","",NA,"","","","","","","",".",".","","","","Louie'"
"247","Pinus strobus","Pine",NA,NA,NA,NA,NA,"20000171","Pinus strobus","Pinus strobus","plant","08-Nov-99","from a cultivated plant not of known wild origin","Aldershot L","","","","",NA,"","","","","","","",".",".","","","",""
"248","Pinus strobus","Pine",NA,NA,NA,NA,NA,"67627","Pinus strobus 'Fastigiata'","Pinus strobus 'Fastigiata'","plant","01-Jan-67","from a cultivated plant not of known wild origin","Rochester","","","","",NA,"","","","","","","",".",".","","","","Fastigiata'"
"249","Pinus strobus","Pine",NA,NA,NA,NA,NA,"890079","Pinus strobus 'Vanderwolf's Green Globe'","","plant","","from a cultivated plant not of known wild origin","Vineland N","","","","",NA,"","","","","","","",".",".","","","","Vanderwolf's Green Globe'"
"250","Pinus strobus","Pine",NA,NA,NA,NA,NA,"20140721","Pinus strobus","Pinus strobus","plant","15-Oct-14","from a cultivated plant not of known wild origin","Connon N NVK","","","","",NA,"","","","","","","",".",".","","","",""
"251","Pinus strobus","Pine",NA,NA,NA,NA,NA,"20000127","Pinus strobus","Pinus strobus","plant","19-Nov-99","from a cultivated plant not of known wild origin","Connon N NVK","","","","",NA,"","","","","","","",".",".","","","",""
"252","Pinus strobus","Pine",NA,NA,NA,NA,NA,"20150339","Pinus strobus 'Blue Shag'","Pinus strobus 'Blue Shag'","plant","15-Apr-15","from a cultivated plant not of known wild origin","Connon N NVK","","","","",NA,"","","","","","","",".",".","","","","Blue Shag'"
"253","Pinus strobus","Pine",NA,NA,NA,NA,NA,"20140213","Pinus strobus 'Stowe Pillar'","Pinus strobus 'Stowe Pillar'","plant","06-Jun-14","from a cultivated plant not of known wild origin","Brotzman's Nursery","","","","",NA,"","","","","","","",".",".","","","","Stowe Pillar'"
"254","Pinus strobus","Pine",NA,NA,NA,NA,NA,"20170318","Pinus strobus 'Pendula'","Pinus strobus 'Pendula'","plant","13-Nov-17","from a cultivated plant not of known wild origin","Connon N NVK","","","","",NA,"","","","","","","",".",".","","","","Pendula'"
"255","Pinus strobus","Pine",NA,NA,NA,NA,NA,"20140072","Pinus strobus 'Louie'","Pinus strobus 'Louie'","plant","16-May-14","from a cultivated plant not of known wild origin","Iseli Nursery","767010","","","",NA,"","","","","","","",".",".","","","","Louie'"
"256","Pinus strobus","Pine",NA,NA,NA,NA,NA,"20150340","Pinus strobus 'Contorta'","Pinus strobus 'Contorta'","plant","15-Apr-15","from a cultivated plant not of known wild origin","Connon N NVK","","","","",NA,"","","","","","","",".",".","","","","Contorta'"
"257","Pinus strobus","Pine",NA,NA,NA,NA,NA,"20170040","Pinus strobus 'Tiny Kurls'","Pinus strobus 'Tiny Kurls'","plant","17-May-17","from a cultivated plant not of known wild origin","Whistling Gardens:Iseli Nursery",":",":",":","",NA,"","","","","","","",".",".","","","","Tiny Kurls'"
"258","Pinus strobus","Pine",NA,NA,NA,NA,NA,"20200247","Pinus strobus 'Mini Twists'","Pinus strobus 'Mini Twists'","plant","01-Jun-20","from a cultivated plant not of known wild origin","Whistling Gardens","","","","",NA,"","","","","","","",".",".","","","","Mini Twists'"
"259","Pinus strobus","Pine",NA,NA,NA,NA,NA,"20140571","Pinus strobus 'Niagara Falls'","Pinus strobus 'Niagara Falls' (vertical)","plant","15-Oct-14","from a cultivated plant not of known wild origin","Iseli Nursery","","","","",NA,"","","","","","","",".",".","","","","Niagara Falls'"
"260","Pinus strobus","Pine",NA,NA,NA,NA,NA,"20170331","Pinus strobus 'Blue Shag'","Pinus strobus 'Blue Shag'","plant","13-Nov-17","from a cultivated plant not of known wild origin","Connon N NVK","","","","",NA,"","","","","","","",".",".","","","","Blue Shag'"
"261","Pinus strobus","Pine",NA,NA,NA,NA,NA,"20120873","Pinus strobus 'Mini Twists'","Pinus strobus 'Mini Twists'","plant","05-Oct-12","from a cultivated plant not of known wild origin","Harper GC","","","","",NA,"","","","","","","",".",".","","","","Mini Twists'"
"262","Pinus strobus","Pine",NA,NA,NA,NA,NA,"980985","Pinus strobus","Pinus strobus","plant","","from a cultivated plant not of known wild origin","Little Otter Tree Farm","","","","",NA,"","","","","","","",".",".","","","",""
"263","Pinus strobus","Pine",NA,NA,NA,NA,NA,"75020","Pinus strobus","Pinus strobus","plant","01-Jul-71","collected directly from wild; origin known","RBG","","","","",NA,"Canada","Ontario","Royal Botanical Gardens","","","","plants from Lamb's Hollow bridge area",".",".","","","",""
"264","Pinus strobus","Pine",NA,NA,NA,NA,NA,"20080302","Pinus strobus 'Pendula'","Pinus strobus 'Pendula'","plant","17-Nov-08","from a cultivated plant not of known wild origin","Connon N NVK","","","","",NA,"","","","","","","",".",".","","","","Pendula'"
"265","Pinus strobus","Pine",NA,NA,NA,NA,NA,"75606","Pinus strobus 'Contorta'","Pinus strobus 'Contorta'","plant","01-Jan-75","from a cultivated plant not of known wild origin","Vermeulen N","","","","",NA,"","","","","","","",".",".","","","","Contorta'"
"266","Pinus strobus","Pine",NA,NA,NA,NA,NA,"20140570","Pinus strobus 'Niagara Falls'","Pinus strobus 'Niagara Falls' (horizontal)","plant","15-Oct-14","from a cultivated plant not of known wild origin","Iseli Nursery","","","","",NA,"","","","","","","",".",".","","","","Niagara Falls'"
"267","Populus deltoides","Poplar",NA,NA,NA,NA,NA,"71227","Populus deltoides","Populus deltoides","plant","01-Jul-71","collected directly from wild; origin known","Butwick","","","","",NA,"","","","","","","",".",".","","","",""
"268","Populus tremuloides","Poplar",NA,NA,NA,NA,NA,"75019","Populus tremuloides","Populus tremuloides","plant","01-Jul-71","collected directly from wild; origin known","RBG","","","","",NA,"","","","","","","",".",".","","","",""
"269","Populus tremuloides","Poplar",NA,NA,NA,NA,NA,"960012","Populus tremuloides","Populus tremuloides","plant","16-Apr-96","from a cultivated plant not of known wild origin","Connon N NVK","","","","",NA,"","","","","","","",".",".","","","",""
"270","Prunus americana","Plum","Progenitor","Graftstock","",NA,"","20080168","Prunus americana","Prunus americana","plant","12-Jun-08","from a cultivated plant not of known wild origin","Aldershot L:Sheridan Nurseries:Solty Garden Centre","::","::","::","",NA,"","","","","","","",".",".","","","",""
"271","Prunus serotina","Cherry","Tertiary","","Abiotic",NA,"Cold Tolerance (AB)","20080167","Prunus serotina","Prunus serotina","plant","12-Jun-08","from a cultivated plant not of known wild origin","Aldershot L:Sheridan Nurseries:Cramer Nursery","::","::","::","",NA,"","","","","","","",".",".","","","",""
"272","Prunus serotina","Cherry","Tertiary","","Abiotic",NA,"Cold Tolerance (AB)","XX209","Prunus serotina","Prunus serotina","unknown propagule type","","uncertain","Unknown","","","","",NA,"","","","","","","",".",".","","","",""
"273","Prunus serotina","Cherry","Tertiary","","Abiotic",NA,"Cold Tolerance (AB)","64296","Prunus serotina","Prunus serotina","plant","01-Jul-64","collected directly from wild; origin known","RBG Property","","","","",NA,"","","","","","","",".",".","","","",""
"274","Prunus serotina","Cherry","Tertiary","","Abiotic",NA,"Cold Tolerance (AB)","20150344","Prunus serotina","Prunus serotina","plant","15-Apr-15","from a cultivated plant not of known wild origin","Connon N NVK","","","","",NA,"","","","","","","",".",".","","","",""
"275","Prunus serotina","Cherry","Tertiary","","Abiotic",NA,"Cold Tolerance (AB)","20000903","Prunus serotina","Prunus serotina","plant","01-Jul-00","from a cultivated plant not of known wild origin","Connon N NVK","","","","",NA,"","","","","","","",".",".","","","",""
"276","Prunus virginiana","Cherry","Tertiary","","Biotic",NA,"Disease Resistance (B)","900149","Prunus virginiana 'Halward's Choice'","Prunus virginiana cv. (Ray Halward's selection)","plant","19-Apr-90","from a cultivated plant not of known wild origin","Hortico Nursery","","","","",NA,"","","","","","","",".",".","","","","Halward's Choice'"
"277","Prunus virginiana","Cherry","Tertiary","","Biotic",NA,"Disease Resistance (B)","20170074","Prunus virginiana","Prunus virginiana","plant","23-May-17","from a cultivated plant not of known wild origin","St. Williams Nursery","","","","",NA,"","","","","","","",".",".","","","",""
"278","Prunus virginiana","Cherry","Tertiary","","Biotic",NA,"Disease Resistance (B)","20080322","Prunus virginiana 'Schubert'","Prunus virginiana 'Schubert'","plant","17-Nov-08","from a cultivated plant not of known wild origin","Connon N NVK","","","","",NA,"","","","","","","",".",".","","","","Schubert'"
"279","Prunus virginiana","Cherry","Tertiary","","Biotic",NA,"Disease Resistance (B)","20090490","Prunus virginiana 'Midnight'","Prunus virginiana 'Midnight'","plant","14-Oct-09","from a cultivated plant not of known wild origin","PAO Hort.","","","","",NA,"","","","","","","",".",".","","","","Midnight'"
"280","Prunus virginiana","Cherry","Tertiary","","Biotic",NA,"Disease Resistance (B)","20090219","Prunus virginiana 'Schubert'","Prunus virginiana 'Shubert'","plant","25-Jun-09","from a cultivated plant not of known wild origin","PAO Hort.","","","","",NA,"","","","","","","",".",".","","","","Schubert'"
"281","Pseudotsuga menziesii","Douglas fir",NA,NA,NA,NA,NA,"20140576","Pseudotsuga menziesii 'Waggin Tails'","Pseudotsuga menziesii 'Waggin Tails'","plant","15-Oct-14","from a cultivated plant not of known wild origin","Iseli Nursery","","","","",NA,"","","","","","","",".",".","","","","Waggin Tails'"
"282","Pseudotsuga menziesii","Douglas fir",NA,NA,NA,NA,NA,"830029","Pseudotsuga menziesii var. glauca","Pseudotsuga menziesii","seed","03-Jan-83","collected directly from wild; origin known","Can For Ser S Bank","","","","",NA,"Canada","British Columbia","British Columbia","Cinima-Quesnel","","","",".",".","","","","glauca"
"283","Pseudotsuga menziesii","Douglas fir",NA,NA,NA,NA,NA,"67407","Pseudotsuga menziesii var. glauca","Pseudotsuga menziesii","plant","01-Jul-67","from a cultivated plant not of known wild origin","Sheridan Nurseries","","","","",NA,"","","","","","","",".",".","","","","glauca"
"284","Pseudotsuga menziesii","Douglas fir",NA,NA,NA,NA,NA,"810668","Pseudotsuga menziesii var. glauca","Pseudotsuga menziesii","plant","02-Oct-81","from a cultivated plant not of known wild origin","Connon N","","","","",NA,"","","","","","","",".",".","","","","glauca"
"285","Pseudotsuga menziesii","Douglas fir",NA,NA,NA,NA,NA,"59953","Pseudotsuga menziesii var. glauca","Pseudotsuga menziesii var. glauca","plant","","from a cultivated plant not of known wild origin","Sheridan Nurseries","","","","",NA,"","","","","","","",".",".","","","","glauca"
"286","Pseudotsuga menziesii","Douglas fir",NA,NA,NA,NA,NA,"55462","Pseudotsuga menziesii var. glauca","Pseudotsuga taxifolia","plant","25-Apr-55","from a cultivated plant not of known wild origin","Sheridan Nurseries","","","","",NA,"","","","","","","",".",".","","","","glauca"
"287","Pseudotsuga menziesii","Douglas fir",NA,NA,NA,NA,NA,"56256","Pseudotsuga menziesii var. glauca","Pseudotsuga taxifolia glauca","seed","01-Jan-56","from a cultivated plant not of known wild origin","AC Ottawa Res Stn","","","","",NA,"","","","","","","",".",".","","","","glauca"
"288","Pseudotsuga menziesii","Douglas fir",NA,NA,NA,NA,NA,"XA17314","Pseudotsuga menziesii var. glauca","Pseudotsuga menziesii var. glauca","plant","","uncertain","Unknown","","","","",NA,"","","","","","","",".",".","","","","glauca"
"289","Pseudotsuga menziesii","Douglas fir",NA,NA,NA,NA,NA,"20140075","Pseudotsuga menziesii [Emerald Twister] = 'Torquis'","Pseudotsuga menziesii Emerald Twister(R)","plant","16-May-14","from a cultivated plant not of known wild origin","Iseli Nursery","825770","","","",NA,"","","","","","","",".",".","","","","Emerald Twister] = 'Torquis'"
"290","Pseudotsuga menziesii","Douglas fir",NA,NA,NA,NA,NA,"65517","Pseudotsuga menziesii var. glauca","Pseudotsuga menziesii","plant","07-May-65","uncertain","Unknown","","","","",NA,"","","","","","","",".",".","","","","glauca"
"291","Pseudotsuga menziesii","Douglas fir",NA,NA,NA,NA,NA,"870572","Pseudotsuga menziesii var. glauca","Pseudotsuga menziesii","plant","02-Jun-87","from a cultivated plant not of known wild origin","Connon N","","","","",NA,"","","","","","","",".",".","","","","glauca"
"292","Pseudotsuga menziesii","Douglas fir",NA,NA,NA,NA,NA,"XA17304","Pseudotsuga menziesii","Pseudotsuga menziesii","plant","","uncertain","Unknown","","","","",NA,"","","","","","","",".",".","","","",""
"293","Pycnanthemum virginianum","Mint, Mountain-","","","",NA,"","20140304","Pycnanthemum virginianum","Pycnanthemum virginianum","plant","19-Aug-14","from a cultivated plant not of known wild origin","Acorus Restoration","","","","",NA,"","","","","","","",".",".","","","",""
"294","Pycnanthemum virginianum","Mint, Mountain-","","","",NA,"","20080122","Pycnanthemum virginianum","Pycnanthemum virginianum","plant","02-Sep-08","from a cultivated plant not of known wild origin","Sheridan Nurseries:Chalk Lake Greenhouses",":",":",":","",NA,"","","","","","","",".",".","","","",""
"295","Pycnanthemum virginianum","Mint, Mountain-","","","",NA,"","20150154","Pycnanthemum virginianum","Pycnanthemum virginianum","plant","09-Sep-15","from a cultivated plant not of known wild origin","RBG Auxiliary","","","","",NA,"","","","","","","",".",".","","","",""
"296","Pycnanthemum virginianum","Mint, Mountain-","","","",NA,"","20090104","Pycnanthemum virginianum","Pycnanthemum virginianum","plant","27-Apr-09","from a cultivated plant not of known wild origin","Heritage Flower Farm","","","","",NA,"","","","","","","",".",".","","","",""
"297","Quercus alba","Oak",NA,NA,NA,NA,NA,"20160309","Quercus alba","Quercus alba","plant","12-Oct-16","from a cultivated plant not of known wild origin","Connon N NVK","","","","",NA,"","","","","","","",".",".","","","",""
"298","Quercus alba","Oak",NA,NA,NA,NA,NA,"XA17353","Quercus alba","Quercus alba","plant","","uncertain","Unknown","","","","",NA,"","","","","","","",".",".","","","",""
"299","Quercus alba","Oak",NA,NA,NA,NA,NA,"20150593","Quercus alba","Quercus alba","plant","15-Aug-15","from a cultivated plant not of known wild origin","Connon N NVK","","","","",NA,"","","","","","","",".",".","","","",""
"300","Quercus alba","Oak",NA,NA,NA,NA,NA,"73077","Quercus alba","Quercus alba","plant","07-May-73","from a cultivated plant not of known wild origin","RBG","","","","",NA,"","","","","","","",".",".","","","",""
"301","Quercus bicolor","Oak",NA,NA,NA,NA,NA,"20190225","Quercus bicolor","Quercus bicolor","plant","06-May-19","from a cultivated plant not of known wild origin","Connon N NVK","","","","",NA,"","","","","","","",".",".","","","",""
"302","Quercus bicolor","Oak",NA,NA,NA,NA,NA,"59812","Quercus bicolor","Quercus bicolor","plant","27-Apr-59","from a cultivated plant not of known wild origin","Meyers","","","","",NA,"","","","","","","",".",".","","","",""
"303","Quercus bicolor","Oak",NA,NA,NA,NA,NA,"20160278","Quercus bicolor","Quercus bicolor","plant","28-Sep-16","from a cultivated plant not of known wild origin","Winkelmolen Nursery","","","","",NA,"","","","","","","",".",".","","","",""
"304","Quercus bicolor","Oak",NA,NA,NA,NA,NA,"20170075","Quercus bicolor","Quercus bicolor","plant","23-May-17","from a cultivated plant not of known wild origin","St. Williams Nursery","","","","",NA,"","","","","","","",".",".","","","",""
"305","Quercus bicolor","Oak",NA,NA,NA,NA,NA,"20190213","Quercus bicolor","Quercus bicolor","plant","24-Apr-19","from a cultivated plant not of known wild origin","Winkelmolen Nursery","","","","",NA,"","","","","","","",".",".","","","",""
"306","Quercus bicolor","Oak",NA,NA,NA,NA,NA,"20180228","Quercus bicolor","Swamp White Oak","plant","20-Nov-18","from a cultivated plant not of known wild origin","Winkelmolen Nursery:Engel's Nursery",":",":","grown on:seedlings","",NA,"","","","","","","",".",".","","","",""
"307","Quercus muehlenbergii","Oak",NA,NA,NA,NA,NA,"20190199","Quercus muehlenbergii","Quercus muehlenbergii","plant","24-Apr-19","from a cultivated plant not of known wild origin","Winkelmolen Nursery","","","","",NA,"","","","","","","",".",".","","","",""
"308","Quercus muehlenbergii","Oak",NA,NA,NA,NA,NA,"20180233","Quercus muehlenbergii","Chinkapin Oak","plant","20-Nov-18","from a cultivated plant not of known wild origin","Winkelmolen Nursery:Engel's Nursery",":",":","grown on:seedlings","",NA,"","","","","","","",".",".","","","",""
"309","Quercus muehlenbergii","Oak",NA,NA,NA,NA,NA,"20080165","Quercus muehlenbergii","Quercus muehlenbergii","plant","12-Jun-08","from a cultivated plant not of known wild origin","Aldershot L:Sheridan Nurseries:Braun N","::","::","::","",NA,"","","","","","","",".",".","","","",""
"310","Quercus palustris","Oak",NA,NA,NA,NA,NA,"75077","Quercus palustris","Quercus palustris","plant","05-May-75","from a cultivated plant not of known wild origin","Sheridan Nurseries","","","","",NA,"","","","","","","",".",".","","","",""
"311","Quercus palustris","Oak",NA,NA,NA,NA,NA,"50039","Quercus palustris","Quercus palustris","plant","26-Apr-50","from a cultivated plant not of known wild origin","Sheridan Nurseries","","","","",NA,"","","","","","","",".",".","","","",""
"312","Quercus palustris","Oak",NA,NA,NA,NA,NA,"61298","Quercus palustris","Quercus palustris","plant","23-Apr-61","from a cultivated plant not of known wild origin","Meyers","","","","",NA,"","","","","","","",".",".","","","",""
"313","Quercus palustris","Oak",NA,NA,NA,NA,NA,"64170","Quercus palustris","Quercus palustris","plant","15-Apr-64","from a cultivated plant not of known wild origin","Sheridan Nurseries","","","","",NA,"","","","","","","",".",".","","","",""
"314","Quercus palustris","Oak",NA,NA,NA,NA,NA,"20060151","Quercus palustris","Quercus palustris Mnchh.","plant","19-Apr-06","from a cultivated plant not of known wild origin","Connon N AVK","","","","",NA,"","","","","","","",".",".","","","",""
"315","Quercus palustris","Oak",NA,NA,NA,NA,NA,"20080164","Quercus palustris","Quercus palustris","plant","12-Jun-08","from a cultivated plant not of known wild origin","Aldershot L:Sheridan Nurseries:Hale and Hines Nursery Co.","::","::","::","",NA,"","","","","","","",".",".","","","",""
"316","Quercus rubra","Oak",NA,NA,NA,NA,NA,"20080162","Quercus rubra","Quercus rubra","plant","12-Jun-08","from a cultivated plant not of known wild origin","Aldershot L:Sheridan Nurseries",":",":",":","",NA,"","","","","","","",".",".","","","",""
"317","Quercus rubra","Oak",NA,NA,NA,NA,NA,"XA17374","Quercus rubra","Quercus rubra","unknown propagule type","","uncertain","Unknown","","","","",NA,"","","","","","","",".",".","","","",""
"318","Quercus rubra","Oak",NA,NA,NA,NA,NA,"20170076","Quercus rubra","Quercus rubra","plant","23-May-17","from a cultivated plant not of known wild origin","St. Williams Nursery","","","","",NA,"","","","","","","",".",".","","","",""
"319","Quercus rubra","Oak",NA,NA,NA,NA,NA,"70189","Quercus rubra","Quercus rubra","plant","08-May-70","from a cultivated plant not of known wild origin","Sheridan Nurseries","","","","",NA,"","","","","","","",".",".","","","",""
"320","Quercus rubra","Oak",NA,NA,NA,NA,NA,"860949","Quercus rubra","Quercus rubra","plant","04-Jun-86","from a cultivated plant not of known wild origin","Connon N","","","","",NA,"","","","","","","",".",".","","","",""
"321","Quercus rubra","Oak",NA,NA,NA,NA,NA,"73044","Quercus rubra","Quercus rubra","plant","01-May-73","from a cultivated plant not of known wild origin","Sheridan Nurseries","","","","",NA,"","","","","","","",".",".","","","",""
"322","Quercus rubra","Oak",NA,NA,NA,NA,NA,"73006","Quercus rubra","Quercus rubra","plant","12-Feb-73","from a cultivated plant not of known wild origin","Sheridan Nurseries","","","","",NA,"","","","","","","",".",".","","","",""
"323","Quercus rubra","Oak",NA,NA,NA,NA,NA,"64169","Quercus rubra","Quercus borealis","plant","15-Apr-64","from a cultivated plant not of known wild origin","Sheridan Nurseries","","","","",NA,"","","","","","","",".",".","","","",""
"324","Quercus rubra","Oak",NA,NA,NA,NA,NA,"20090260","Quercus rubra","Quercus rubra","plant","26-Jun-09","from a cultivated plant not of known wild origin","Connon N NVK","","","","",NA,"","","","","","","",".",".","","","",""
"325","Quercus rubra","Oak",NA,NA,NA,NA,NA,"62186","Quercus rubra","Quercus rubra","plant","21-Apr-62","uncertain","Meyers","","","","",NA,"","","","","","","",".",".","","","",""
"326","Quercus rubra","Oak",NA,NA,NA,NA,NA,"XX210","Quercus rubra","Quercus rubra","unknown propagule type","","uncertain","Unknown","","","","",NA,"","","","","","","",".",".","","","",""
"327","Quercus rubra","Oak",NA,NA,NA,NA,NA,"20060150","Quercus rubra","Quercus rubra L.","plant","01-Jul-06","from a cultivated plant not of known wild origin","Unknown","","","","",NA,"","","","","","","",".",".","","","",""
"328","Quercus rubra","Oak",NA,NA,NA,NA,NA,"870573","Quercus rubra","Quercus rubra","plant","02-Jun-87","from a cultivated plant not of known wild origin","Connon N","","","","",NA,"","","","","","","",".",".","","","",""
"329","Quercus rubra","Oak",NA,NA,NA,NA,NA,"67779","Quercus rubra","Quercus rubra","plant","27-May-67","from a cultivated plant not of known wild origin","Burlington Hort Soc","","","","",NA,"","","","","","","",".",".","","","",""
"330","Quercus rubra","Oak",NA,NA,NA,NA,NA,"830505","Quercus rubra","Quercus rubra","plant","01-Jun-83","from a cultivated plant not of known wild origin","Connon N","","","","",NA,"","","","","","","",".",".","","","",""
"331","Quercus rubra","Oak",NA,NA,NA,NA,NA,"XX534","Quercus rubra","Quercus sp.","existing plant","","uncertain","RBG Property","","","","",NA,"","","","","","","",".",".","","","",""
"332","Quercus rubra","Oak",NA,NA,NA,NA,NA,"20030065","Quercus rubra","Quercus rubra","plant","","uncertain","Unknown","","","","",NA,"","","","","","","",".",".","","","",""
"333","Quercus rubra","Oak",NA,NA,NA,NA,NA,"20160180","Quercus rubra","Quercus sp.","plant","01-Jul-08","from a cultivated plant not of known wild origin","Unknown","","","","",NA,"","","","","","","",".",".","","","",""
"334","Quercus rubra","Oak",NA,NA,NA,NA,NA,"69246","Quercus rubra","Quercus rubra","plant","28-Apr-69","uncertain","Mills","","","","",NA,"","","","","","","",".",".","","","",""
"335","Quercus rubra","Oak",NA,NA,NA,NA,NA,"20030064","Quercus rubra","Quercus rubra","plant","","uncertain","Unknown","","","","",NA,"","","","","","","",".",".","","","",""
"336","Quercus rubra","Oak",NA,NA,NA,NA,NA,"861198","Quercus rubra","Quercus rubra","plant","09-Jul-86","from a cultivated plant not of known wild origin","Connon N NVK","","","","",NA,"","","","","","","",".",".","","","",""
"337","Quercus rubra","Oak",NA,NA,NA,NA,NA,"68015","Quercus rubra","Quercus rubra","plant","10-Apr-68","from a cultivated plant not of known wild origin","Braun N","","","","",NA,"","","","","","","",".",".","","","",""
"338","Quercus velutina","Oak",NA,NA,NA,NA,NA,"800369","Quercus velutina","Quercus velutina","plant","12-May-80","from a cultivated plant not of known wild origin","Sheridan Nurseries","","","","",NA,"","","","","","","",".",".","","","",""
"339","Quercus velutina","Oak",NA,NA,NA,NA,NA,"20170077","Quercus velutina","Quercus velutina","plant","23-May-17","from a cultivated plant not of known wild origin","St. Williams Nursery","","","","",NA,"","","","","","","",".",".","","","",""
"340","Quercus velutina","Oak",NA,NA,NA,NA,NA,"XX211","Quercus velutina","Quercus velutina","unknown propagule type","","uncertain","Unknown","","","","",NA,"","","","","","","",".",".","","","",""
"341","Quercus velutina","Oak",NA,NA,NA,NA,NA,"72103","Quercus velutina","Quercus velutina","plant","01-Jul-72","from a cultivated plant not of known wild origin","Sheridan Nurseries","","","","",NA,"","","","","","","",".",".","","","",""
"342","Ribes aureum","Currant","Tertiary","","",NA,"","20120634","Ribes aureum","Ribes aureum","plant","09-Sep-12","from a cultivated plant not of known wild origin","Connon N NVK","","","","",NA,"","","","","","","",".",".","","","",""
"343","Ribes sanguineum","Currant","Secondary","","Agronomic",NA,"Growth Habit (AG)","541433","Ribes sanguineum","Ribes sanguineum","plant","01-Jul-54","uncertain","AC Ottawa Res Stn","","","","",NA,"","","","","","","",".",".","","","",""
"344","Rubus allegheniensis","Raspberry","Primary","","Agronomic",NA,"Crop Quality (AG)","XA18213","Rubus allegheniensis","Rubus allegheniensis","plant","","uncertain","Unknown","","","","",NA,"","","","","","","",".",".","","","",""
"345","Rubus idaeus","Raspberry","Secondary","","",NA,"","880804","Rubus idaeus 'Latham'","","plant","26-Apr-88","from a cultivated plant not of known wild origin","Connon N","","","","",NA,"","","","","","","",".",".","","","","Latham'"
"346","Rubus idaeus","Raspberry","Secondary","","",NA,"","880805","Rubus idaeus 'Boyne'","","plant","26-Apr-88","from a cultivated plant not of known wild origin","Connon N","","","","",NA,"","","","","","","",".",".","","","","Boyne'"
"347","Rubus idaeus","Raspberry","Secondary","","",NA,"","880806","Rubus idaeus 'Heritage'","","plant","26-Apr-88","from a cultivated plant not of known wild origin","Connon N","","","","",NA,"","","","","","","",".",".","","","","Heritage'"
"348","Rubus odoratus","Raspberry","Secondary","","Agronomic",NA,"High Yield (AG)","XA18228","Rubus odoratus","Rubus odoratus","plant","","uncertain","Unknown","","","","",NA,"","","","","","","",".",".","","","",""
"349","Rubus odoratus","Raspberry","Secondary","","Agronomic",NA,"High Yield (AG)","20080158","Rubus odoratus","Rubus odoratus","plant","12-Jun-08","from a cultivated plant not of known wild origin","Aldershot L:Sheridan Nurseries",":",":",":","",NA,"","","","","","","",".",".","","","",""
"350","Rubus spectabilis","Raspberry","Primary","","Agronomic",NA,"Crop Quality (AG)","20190273","Rubus spectabilis 'Golden Ruby'","Rubus 'Golden Ruby'","plant","03-Jun-19","from a cultivated plant not of known wild origin","Millgrove Perennials","","","","",NA,"","","","","","","",".",".","","","","Golden Ruby'"
"351","Sambucus canadensis","Elderberry",NA,NA,NA,NA,NA,"800916","Sambucus canadensis","Sambucus canadensis","plant","24-Nov-80","collected directly from wild; origin known","RBG","","","","",NA,"","","","","","","",".",".","","","",""
"352","Sambucus canadensis","Elderberry",NA,NA,NA,NA,NA,"860592","Sambucus canadensis 'Maxima'","Sambucus canadensis 'Maxima'","plant","30-Apr-86","from a cultivated plant not of known wild origin","Connon N NVK","","","","",NA,"","","","","","","",".",".","","","","Maxima'"
"353","Sambucus canadensis","Elderberry",NA,NA,NA,NA,NA,"20160040","Sambucus canadensis","Sambucus canadensis","plant","01-Jul-15","from a cultivated plant not of known wild origin","Connon N NVK","","","","",NA,"","","","","","","",".",".","","","",""
"354","Sambucus canadensis","Elderberry",NA,NA,NA,NA,NA,"831251","Sambucus canadensis 'Laciniata'","Sambucus canadensis cv.","cutting","01-Jul-83","from a cultivated plant not of known wild origin","RBG","66548","","","",NA,"","","","","","","",".",".","","","","Laciniata'"
"355","Sambucus canadensis","Elderberry",NA,NA,NA,NA,NA,"20100529","Sambucus canadensis","Sambucus nigra ssp. canadensis","plant","12-Aug-10","from a cultivated plant not of known wild origin","Connon N NVK","","","","",NA,"","","","","","","",".",".","","","",""
"356","Sambucus canadensis","Elderberry",NA,NA,NA,NA,NA,"20170078","Sambucus canadensis","Sambucus canadensis","plant","23-May-17","from a cultivated plant not of known wild origin","St. Williams Nursery","","","","",NA,"","","","","","","",".",".","","","",""
"357","Sambucus canadensis","Elderberry",NA,NA,NA,NA,NA,"20080156","Sambucus canadensis","Sambucus nigra ssp. canadensis","plant","12-Jun-08","from a cultivated plant not of known wild origin","Aldershot L:Sheridan Nurseries",":",":",":","",NA,"","","","","","","",".",".","","","",""
"358","Sambucus racemosa","Elderberry",NA,NA,NA,NA,NA,"920278","Sambucus racemosa 'Madonna'","Sambucus racemosa 'Madonna'","plant","21-Apr-92","from a cultivated plant not of known wild origin","Sheridan Nurseries","","","","",NA,"","","","","","","",".",".","","","","Madonna'"
"359","Sambucus racemosa","Elderberry",NA,NA,NA,NA,NA,"20080163","Sambucus racemosa subsp. racemosa","Sambucus racemosa var. racemosa","plant","12-Jun-08","from a cultivated plant not of known wild origin","Aldershot L:Sheridan Nurseries:Verbinnen's Nursery","::","::","::","",NA,"","","","","","","",".",".","","",""," racemosa"
"360","Sambucus racemosa","Elderberry",NA,NA,NA,NA,NA,"20150350","Sambucus racemosa subsp. pubens","Sambucus pubens","plant","15-Apr-15","from a cultivated plant not of known wild origin","Connon N NVK","","","","",NA,"","","","","","","",".",".","","",""," pubens"
"361","Taxus canadensis","Taxus",NA,NA,NA,NA,NA,"20150356","Taxus canadensis","Taxus canadensis","plant","15-Apr-15","from a cultivated plant not of known wild origin","Connon N NVK","","","","",NA,"","","","","","","",".",".","","","",""
"362","Thuja occidentalis","Cedar",NA,NA,NA,NA,NA,"841106","Thuja occidentalis 'Cloth of Gold'","Thuja occidentalis 'Cloth of Gold'","unknown propagule type","","from a cultivated plant not of known wild origin","Unknown","","","","",NA,"","","","","","","",".",".","","","","Cloth of Gold'"
"363","Thuja occidentalis","Cedar",NA,NA,NA,NA,NA,"910643","Thuja occidentalis 'Pyramidalis'","Thuja occidentalis 'Pyramidalis'","cutting","26-Aug-91","from a cultivated plant not of known wild origin","RBG","74664","","","",NA,"","","","","","","",".",".","","","","Pyramidalis'"
"364","Thuja occidentalis","Cedar",NA,NA,NA,NA,NA,"841109","Thuja occidentalis 'Recurva Nana'","Thuja occidentalis 'Recurva Nana'","unknown propagule type","","from a cultivated plant not of known wild origin","Unknown","","","","",NA,"","","","","","","",".",".","","","","Recurva Nana'"
"365","Thuja occidentalis","Cedar",NA,NA,NA,NA,NA,"960033","Thuja occidentalis 'Spiralis'","Thuja occidentalis 'Spiralis'","plant","16-Apr-96","from a cultivated plant not of known wild origin","Connon N NVK","","","","",NA,"","","","","","","",".",".","","","","Spiralis'"
"366","Thuja occidentalis","Cedar",NA,NA,NA,NA,NA,"800845","Thuja occidentalis 'Brandon'","","not coded","","from a cultivated plant not of known wild origin","","","","","",NA,"","","","","","","",".",".","","","","Brandon'"
"367","Thuja occidentalis","Cedar",NA,NA,NA,NA,NA,"950029","Thuja occidentalis 'Brabant'","Thuja occidentalis 'Brabant'","plant","25-Apr-95","from a cultivated plant not of known wild origin","Bakker N","","","","",NA,"","","","","","","",".",".","","","","Brabant'"
"368","Thuja occidentalis","Cedar",NA,NA,NA,NA,NA,"20160321","Thuja occidentalis 'Nigra'","Thuja occidentalis 'Nigra'","plant","20-Oct-16","from a cultivated plant not of known wild origin","Connon N NVK","","","","",NA,"","","","","","","",".",".","","","","Nigra'"
"369","Thuja occidentalis","Cedar",NA,NA,NA,NA,NA,"980831","Thuja occidentalis 'Golden Champion'","Thuja occidentalis 'Golden Champion'","cutting","04-Nov-98","from a cultivated plant not of known wild origin","RBG","730001","","","",NA,"","","","","","","",".",".","","","","Golden Champion'"
"370","Thuja occidentalis","Cedar",NA,NA,NA,NA,NA,"59395","Thuja occidentalis 'Columbia'","Thuja occidentalis 'Columbia'","cutting","01-Jul-59","from a cultivated plant not of known wild origin","RBG","58837","","","",NA,"","","","","","","",".",".","","","","Columbia'"
"371","Thuja occidentalis","Cedar",NA,NA,NA,NA,NA,"780163","Thuja occidentalis 'Beaufort'","","cutting","","from a cultivated plant not of known wild origin","RBG","63351","","","",NA,"","","","","","","",".",".","","","","Beaufort'"
"372","Thuja occidentalis","Cedar",NA,NA,NA,NA,NA,"910633","Thuja occidentalis 'Golden Champion'","Thuja occidentalis 'Golden Champion'","cutting","26-Aug-91","from a cultivated plant not of known wild origin","RBG","73001","","","",NA,"","","","","","","",".",".","","","","Golden Champion'"
"373","Thuja occidentalis","Cedar",NA,NA,NA,NA,NA,"74664","Thuja occidentalis 'Pyramidalis'","Thuja occidentalis 'Pyramidalis'","plant","01-Jul-74","from a cultivated plant not of known wild origin","Sheridan Nurseries","","","","",NA,"","","","","","","",".",".","","","","Pyramidalis'"
"374","Thuja occidentalis","Cedar",NA,NA,NA,NA,NA,"67447","Thuja occidentalis 'Brandon'","","plant","","from a cultivated plant not of known wild origin","AC Morden Res Stn","","","","",NA,"","","","","","","",".",".","","","","Brandon'"
"375","Thuja occidentalis","Cedar",NA,NA,NA,NA,NA,"20110016","Thuja occidentalis 'Sherwood Moss'","Thuja occidentalis 'Sherwood Moss'","plant","13-May-11","from a cultivated plant not of known wild origin","Connon N NVK","","","","",NA,"","","","","","","",".",".","","","","Sherwood Moss'"
"376","Thuja occidentalis","Cedar",NA,NA,NA,NA,NA,"51222","Thuja occidentalis 'Little Gem'","Thuja occidentalis 'Little Gem'","plant","","from a cultivated plant not of known wild origin","Sheridan Nurseries","","","","",NA,"","","","","","","",".",".","","","","Little Gem'"
"377","Thuja occidentalis","Cedar",NA,NA,NA,NA,NA,"20190321","Thuja occidentalis 'Holmstrup'","Thuja occidentalis 'Holmstrup'","plant","05-Jun-19","from a cultivated plant not of known wild origin","Connon N NVK","","","","",NA,"","","","","","","",".",".","","","","Holmstrup'"
"378","Thuja occidentalis","Cedar",NA,NA,NA,NA,NA,"910636","Thuja occidentalis 'Wareana Lutescens'","Thuja occidentalis 'Wareana Lutescens'","cutting","26-Aug-91","from a cultivated plant not of known wild origin","RBG","780157","","","",NA,"","","","","","","",".",".","","","","Wareana Lutescens'"
"379","Thuja occidentalis","Cedar",NA,NA,NA,NA,NA,"910622","Thuja occidentalis 'Wareana Lutescens'","Thuja occidentalis 'Wareana Lutescens'","cutting","26-Aug-91","from a cultivated plant not of known wild origin","RBG","61947","","","",NA,"","","","","","","",".",".","","","","Wareana Lutescens'"
"380","Thuja occidentalis","Cedar",NA,NA,NA,NA,NA,"20170019","Thuja occidentalis 'Nigra'","Thuja occidentalis 'Nigra'","plant","15-May-16","from a cultivated plant not of known wild origin","Connon N NVK","","","","",NA,"","","","","","","",".",".","","","","Nigra'"
"381","Thuja occidentalis","Cedar",NA,NA,NA,NA,NA,"910621","Thuja occidentalis 'Unicorn'","Thuja occidentalis 'Unicorn'","cutting","26-Aug-91","from a cultivated plant not of known wild origin","RBG","841110","","","",NA,"","","","","","","",".",".","","","","Unicorn'"
"382","Thuja occidentalis","Cedar",NA,NA,NA,NA,NA,"20150361","Thuja occidentalis 'Sherwood Moss'","Thuja occidentalis 'Sherwood Moss'","plant","15-Apr-15","from a cultivated plant not of known wild origin","Connon N NVK","","","","",NA,"","","","","","","",".",".","","","","Sherwood Moss'"
"383","Thuja occidentalis","Cedar",NA,NA,NA,NA,NA,"571588","Thuja occidentalis 'Bodmeri'","Thuja occidentalis 'Bodmeri'","cutting","","from a cultivated plant not of known wild origin","Unknown","","","","",NA,"","","","","","","",".",".","","","","Bodmeri'"
"384","Thuja occidentalis","Cedar",NA,NA,NA,NA,NA,"20010195","Thuja occidentalis 'DeGroot's Spire'","Thuja occidentalis 'Degroot's Spire'","plant","23-Aug-01","from a cultivated plant not of known wild origin","Connon N NVK","","","","",NA,"","","","","","","",".",".","","","","DeGroot's Spire'"
"385","Thuja occidentalis","Cedar",NA,NA,NA,NA,NA,"800850","Thuja occidentalis 'Techny'","Thuja occidentalis 'Techny'","unknown propagule type","","from a cultivated plant not of known wild origin","Unknown","","","","",NA,"","","","","","","",".",".","","","","Techny'"
"386","Thuja occidentalis","Cedar",NA,NA,NA,NA,NA,"20020294","Thuja occidentalis 'DeGroot's Spire'","Thuja occidentalis 'Degroot's Spire'","plant","25-Jul-02","from a cultivated plant not of known wild origin","Connon N NVK","","","","",NA,"","","","","","","",".",".","","","","DeGroot's Spire'"
"387","Thuja occidentalis","Cedar",NA,NA,NA,NA,NA,"20140530","Thuja occidentalis 'Holmstrup'","Thuja occidentalis 'Holmstrup'","plant","15-Oct-14","from a cultivated plant not of known wild origin","Connon N NVK","","","","",NA,"","","","","","","",".",".","","","","Holmstrup'"
"388","Thuja occidentalis","Cedar",NA,NA,NA,NA,NA,"910642","Thuja occidentalis 'Mission'","Thuja occidentalis 'Mission'","cutting","26-Aug-91","from a cultivated plant not of known wild origin","RBG","75685","","","",NA,"","","","","","","",".",".","","","","Mission'"
"389","Thuja occidentalis","Cedar",NA,NA,NA,NA,NA,"901101","Thuja occidentalis 'Nigra'","","plant","25-Oct-90","from a cultivated plant not of known wild origin","Sheridan Nurseries","","","","",NA,"","","","","","","",".",".","","","","Nigra'"
"390","Thuja occidentalis","Cedar",NA,NA,NA,NA,NA,"950798","Thuja occidentalis","Thuja occidentalis","plant","26-Oct-95","from a cultivated plant not of known wild origin","Connon N NVK","","","","",NA,"","","","","","","",".",".","","","",""
"391","Thuja occidentalis","Cedar",NA,NA,NA,NA,NA,"970071","Thuja occidentalis 'Golden Champion'","Thuja occidentalis 'Golden Champion'","plant","","from a cultivated plant not of known wild origin","RBG","841108","","","",NA,"","","","","","","",".",".","","","","Golden Champion'"
"392","Thuja occidentalis","Cedar",NA,NA,NA,NA,NA,"20170321","Thuja occidentalis [EMERALD] = 'Smaragd'","Thuja occidentalis 'Emerald'","plant","13-Nov-17","from a cultivated plant not of known wild origin","Connon N NVK","","","","",NA,"","","","","","","",".",".","","","","EMERALD] = 'Smaragd'"
"393","Thuja occidentalis","Cedar",NA,NA,NA,NA,NA,"841108","Thuja occidentalis 'Golden Champion'","Thuja occidentalis 'Golden Champion'","unknown propagule type","","from a cultivated plant not of known wild origin","Unknown","","","","",NA,"","","","","","","",".",".","","","","Golden Champion'"
"394","Thuja occidentalis","Cedar",NA,NA,NA,NA,NA,"XA19798","Thuja occidentalis 'Globosa'","Thuja occidentalis 'Globosa'","unknown propagule type","","from a cultivated plant not of known wild origin","Unknown","","","","",NA,"","","","","","","",".",".","","","","Globosa'"
"395","Thuja occidentalis","Cedar",NA,NA,NA,NA,NA,"20150359","Thuja occidentalis 'DeGroot's Spire'","Thuja occidentalis 'DeGroot's Spire'","plant","15-Apr-15","from a cultivated plant not of known wild origin","Connon N NVK","","","","",NA,"","","","","","","",".",".","","","","DeGroot's Spire'"
"396","Thuja occidentalis","Cedar",NA,NA,NA,NA,NA,"910616","Thuja occidentalis 'Fastigiata'","Thuja occidentalis 'Fastigiata'","plant","26-Aug-91","from a cultivated plant not of known wild origin","RBG","62386","","","",NA,"","","","","","","",".",".","","","","Fastigiata'"
"397","Thuja occidentalis","Cedar",NA,NA,NA,NA,NA,"960601","Thuja occidentalis 'DeGroot's Spire'","Thuja occidentalis 'Degroot's Spire'","plant","16-Jan-97","from a cultivated plant not of known wild origin","Spring Meadow N","","","","",NA,"","","","","","","",".",".","","","","DeGroot's Spire'"
"398","Thuja occidentalis","Cedar",NA,NA,NA,NA,NA,"20150178","Thuja occidentalis","Thuja occidentalis","plant","15-Sep-15","uncertain","Forests Ontario","","","","",NA,"","","","","","","",".",".","","","",""
"399","Thuja occidentalis","Cedar",NA,NA,NA,NA,NA,"20100610","Thuja occidentalis 'Sunkist'","Thuja occidentalis 'Sunkist'","plant","28-Sep-10","from a cultivated plant not of known wild origin","Connon N NVK","","","","",NA,"","","","","","","",".",".","","","","Sunkist'"
"400","Thuja occidentalis","Cedar",NA,NA,NA,NA,NA,"941061","Thuja occidentalis 'Umbraculifera'","Thuja occidentalis 'Umbraculifera'","cutting","31-Dec-67","from a cultivated plant not of known wild origin","RBG","780319","","","",NA,"","","","","","","",".",".","","","","Umbraculifera'"
"401","Thuja occidentalis","Cedar",NA,NA,NA,NA,NA,"20090560","Thuja occidentalis [EMERALD] = 'Smaragd'","Thuja occidentalis 'Smaragd'","plant","11-Nov-09","from a cultivated plant not of known wild origin","Holland Pk Burlington","","","","",NA,"","","","","","","",".",".","","","","EMERALD] = 'Smaragd'"
"402","Thuja occidentalis","Cedar",NA,NA,NA,NA,NA,"XA19823","Thuja occidentalis cv.","Thuja occidentalis cv.","plant","","uncertain","Unknown","","","","",NA,"","","","","","","",".",".","","","",""
"403","Thuja occidentalis","Cedar",NA,NA,NA,NA,NA,"800852","Thuja occidentalis 'Wareana'","Thuja occidentalis 'Wareana'","unknown propagule type","01-Jul-88","from a cultivated plant not of known wild origin","Unknown","","","","",NA,"","","","","","","",".",".","","","","Wareana'"
"404","Thuja occidentalis","Cedar",NA,NA,NA,NA,NA,"20110014","Thuja occidentalis 'Fastigiata'","Thuja occidentalis 'Fastigiata'","plant","13-May-11","from a cultivated plant not of known wild origin","Connon N NVK","","","","",NA,"","","","","","","",".",".","","","","Fastigiata'"
"405","Thuja occidentalis","Cedar",NA,NA,NA,NA,NA,"20170327","Thuja occidentalis [EMERALD] = 'Smaragd'","Thuja occidentalis 'Emerald'","plant","13-Nov-17","from a cultivated plant not of known wild origin","Connon N NVK","","","","",NA,"","","","","","","",".",".","","","","EMERALD] = 'Smaragd'"
"406","Thuja occidentalis","Cedar",NA,NA,NA,NA,NA,"XX233","Thuja occidentalis","Thuja occidentalis","unknown propagule type","","uncertain","Unknown","","","","",NA,"","","","","","","",".",".","","","",""
"407","Thuja occidentalis","Cedar",NA,NA,NA,NA,NA,"XA19780","Thuja occidentalis","Thuja occidentalis","unknown propagule type","","uncertain","Unknown","","","","",NA,"","","","","","","",".",".","","","",""
"408","Thuja occidentalis","Cedar",NA,NA,NA,NA,NA,"20170050","Thuja occidentalis 'George Peabody'","Thuja occidentalis 'George Peabody'","plant","25-May-17","from a cultivated plant not of known wild origin","Connon N NVK","","","","",NA,"","","","","","","",".",".","","","","George Peabody'"
"409","Thuja occidentalis","Cedar",NA,NA,NA,NA,NA,"20100276","Thuja occidentalis 'Holmstrup'","Thuja occidentalis 'Holmstrup'","plant","26-Apr-10","from a cultivated plant not of known wild origin","Connon N NVK","","","","",NA,"","","","","","","",".",".","","","","Holmstrup'"
"410","Thuja occidentalis","Cedar",NA,NA,NA,NA,NA,"910632","Thuja occidentalis 'Holmstrup'","Thuja occidentalis 'Holmstrupii'","cutting","26-Aug-91","from a cultivated plant not of known wild origin","RBG","62404","","","",NA,"","","","","","","",".",".","","","","Holmstrup'"
"411","Thuja occidentalis","Cedar",NA,NA,NA,NA,NA,"910627","Thuja occidentalis 'Beaufort'","Thuja occidentalis 'Beaufort'","cutting","26-Aug-91","from a cultivated plant not of known wild origin","RBG","780163","","","",NA,"","","","","","","",".",".","","","","Beaufort'"
"412","Thuja occidentalis","Cedar",NA,NA,NA,NA,NA,"841107","Thuja occidentalis 'Columbia'","Thuja occidentalis 'Columbia'","unknown propagule type","","from a cultivated plant not of known wild origin","Unknown","","","","",NA,"","","","","","","",".",".","","","","Columbia'"
"413","Thuja occidentalis","Cedar",NA,NA,NA,NA,NA,"900910","Thuja occidentalis 'Techny'","Thuja occidentalis 'Techney'","plant","11-Sep-90","from a cultivated plant not of known wild origin","Sheridan Nurseries","","","","",NA,"","","","","","","",".",".","","","","Techny'"
"414","Thuja occidentalis","Cedar",NA,NA,NA,NA,NA,"20190434","Thuja occidentalis 'Europe Gold'","Thuja occidentalis 'Europe Gold'","plant","22-Oct-19","from a cultivated plant not of known wild origin","Connon N NVK","","","","",NA,"","","","","","","",".",".","","","","Europe Gold'"
"415","Thuja occidentalis","Cedar",NA,NA,NA,NA,NA,"20190290","Thuja occidentalis 'Zmatlik'","Thuja occidentalis 'Zmatlik'","plant","13-Jun-19","from a cultivated plant not of known wild origin","Connon Nurseries - Robson Road","","","","",NA,"","","","","","","",".",".","","","","Zmatlik'"
"416","Thuja occidentalis","Cedar",NA,NA,NA,NA,NA,"20150358","Thuja occidentalis","Thuja occidentalis","plant","15-Apr-15","from a cultivated plant not of known wild origin","Connon N NVK","","","","",NA,"","","","","","","",".",".","","","",""
"417","Thuja occidentalis","Cedar",NA,NA,NA,NA,NA,"30060","Thuja occidentalis","Thuja occidentalis","plant","","from a cultivated plant not of known wild origin","Unknown","","","","",NA,"","","","","","","",".",".","","","",""
"418","Thuja occidentalis","Cedar",NA,NA,NA,NA,NA,"910635","Thuja occidentalis 'Douglasii Aurea'","Thuja occidentalis 'Douglasii Aurea'","cutting","26-Aug-91","from a cultivated plant not of known wild origin","RBG","770368","","","",NA,"","","","","","","",".",".","","","","Douglasii Aurea'"
"419","Thuja occidentalis","Cedar",NA,NA,NA,NA,NA,"941064","Thuja occidentalis 'Hetz Midget'","Thuja occidentalis 'Hetz Midget'","cutting","31-Dec-67","from a cultivated plant not of known wild origin","RBG","780666","","","",NA,"","","","","","","",".",".","","","","Hetz Midget'"
"420","Thuja occidentalis","Cedar",NA,NA,NA,NA,NA,"20190433","Thuja occidentalis 'DeGroot's Spire'","Thuja occidentalis 'DeGroot's Spire'","plant","22-Oct-19","from a cultivated plant not of known wild origin","Connon N NVK","","","","",NA,"","","","","","","",".",".","","","","DeGroot's Spire'"
"421","Thuja occidentalis","Cedar",NA,NA,NA,NA,NA,"940130","Thuja occidentalis 'Sunkist'","Thuja occidentalis 'Sunkist'","plant","21-Apr-94","from a cultivated plant not of known wild origin","Connon N NVK","","","","",NA,"","","","","","","",".",".","","","","Sunkist'"
"422","Thuja occidentalis","Cedar",NA,NA,NA,NA,NA,"910625","Thuja occidentalis 'Hetz Wintergreen'","Thuja occidentalis 'Hetz Wintergreen'","cutting","26-Aug-91","from a cultivated plant not of known wild origin","RBG","62389","","","",NA,"","","","","","","",".",".","","","","Hetz Wintergreen'"
"423","Thuja occidentalis","Cedar",NA,NA,NA,NA,NA,"20150360","Thuja occidentalis 'Golden Globe'","Thuja occidentalis 'Golden Globe'","plant","15-Apr-15","from a cultivated plant not of known wild origin","Connon N NVK","","","","",NA,"","","","","","","",".",".","","","","Golden Globe'"
"424","Thuja occidentalis","Cedar",NA,NA,NA,NA,NA,"XA19799","Thuja occidentalis 'Golden Champion'","Thuja occidentalis 'Golden Champion'","plant","","uncertain","Unknown","","","","",NA,"","","","","","","",".",".","","","","Golden Champion'"
"425","Thuja plicata","Cedar",NA,NA,NA,NA,NA,"851075","Thuja plicata","Thuja plicata","unknown propagule type","","collected directly from wild; origin known","Unknown","","","","",NA,"","","","","","","",".",".","","","",""
"426","Thuja plicata","Cedar",NA,NA,NA,NA,NA,"20190001","Thuja plicata","Thuja plicata","seedling","14-Jan-19","cultivated plant of known (indirect) wild origin","Sunny Island Farm:Linnaea Nurseries",":",":",":","Linnaea Nurseries",NA,"Canada","British Columbia","Blue River","","","","seed collected from the Blue River, BC area - an interior part of the province. Considered a Zone 4-5 provenance.",".",".","","","",""
"427","Thuja plicata","Cedar",NA,NA,NA,NA,NA,"20150363","Thuja plicata 'Whipcord'","Thuja plicata 'Whipcord'","plant","15-Apr-15","from a cultivated plant not of known wild origin","Connon N NVK","","","","",NA,"","","","","","","",".",".","","","","Whipcord'"
"428","Thuja plicata","Cedar",NA,NA,NA,NA,NA,"20100304","Thuja plicata 'Cuprea'","Thuja plicata 'Cuprea'","plant","07-May-10","from a cultivated plant not of known wild origin","Connon N NVK","","","","",NA,"","","","","","","",".",".","","","","Cuprea'"
"429","Tilia americana","Linden",NA,NA,NA,NA,NA,"20070007","Tilia americana","Tilia americana","plant","01-Jul-07","from a cultivated plant not of known wild origin","Connon N NVK","","","","",NA,"","","","","","","",".",".","","","",""
"430","Tilia americana","Linden",NA,NA,NA,NA,NA,"XA19867","Tilia americana","Tilia americana","plant","","uncertain","Unknown","","","","",NA,"","","","","","","",".",".","","","",""
"431","Tilia americana","Linden",NA,NA,NA,NA,NA,"75025","Tilia americana","Tilia americana","plant","","collected directly from wild; origin known","RBG","","","","",NA,"","","","","","","",".",".","","","",""
"432","Tilia americana","Linden",NA,NA,NA,NA,NA,"20010037","Tilia americana 'Redmond'","Tilia americana 'Redmond'","plant","02-Apr-01","from a cultivated plant not of known wild origin","Kraus N","","","","",NA,"","","","","","","",".",".","","","","Redmond'"
"433","Tilia americana","Linden",NA,NA,NA,NA,NA,"940972","Tilia americana 'Redmond'","Tilia americana 'Redmond'","plant","26-Oct-94","from a cultivated plant not of known wild origin","Kraus N","","","","",NA,"","","","","","","",".",".","","","","Redmond'"
"434","Tilia americana","Linden",NA,NA,NA,NA,NA,"61959","Tilia americana","Tilia americana","seed","","uncertain","RBG","","","","",NA,"","","","","","","",".",".","","","",""
"435","Tradescantia virginiana","Spiderwort","Progenitor","","Agronomic",NA,"Ornamental Features (AG)","20080133","Tradescantia virginiana","Tradescantia virginiana","plant","02-Sep-08","from a cultivated plant not of known wild origin","Sheridan Nurseries:Frank Schenk",":",":",":","",NA,"","","","","","","",".",".","","","",""
"436","Tsuga canadensis","Hemlock",NA,NA,NA,NA,NA,"20140582","Tsuga canadensis 'Aurea Compacta'","Tsuga canadensis 'Aurea Compacta'","plant","15-Oct-14","from a cultivated plant not of known wild origin","Iseli Nursery","","","","",NA,"","","","","","","",".",".","","","","Aurea Compacta'"
"437","Tsuga canadensis","Hemlock",NA,NA,NA,NA,NA,"20120395","Tsuga canadensis 'Summer Snow'","Tsuga canadensis 'Summer Snow'","plant","14-Jun-12","from a cultivated plant not of known wild origin","Lost Horizons","","","","",NA,"","","","","","","",".",".","","","","Summer Snow'"
"438","Tsuga canadensis","Hemlock",NA,NA,NA,NA,NA,"20140588","Tsuga canadensis 'Summer Snow'","Tsuga canadensis 'Summer Snow'","plant","15-Oct-14","from a cultivated plant not of known wild origin","Iseli Nursery","","","","",NA,"","","","","","","",".",".","","","","Summer Snow'"
"439","Tsuga canadensis","Hemlock",NA,NA,NA,NA,NA,"20150366","Tsuga canadensis 'Pendula'","Tsuga canadensis 'Pendula'","plant","15-Apr-15","from a cultivated plant not of known wild origin","Connon N NVK","","","","",NA,"","","","","","","",".",".","","","","Pendula'"
"440","Tsuga canadensis","Hemlock",NA,NA,NA,NA,NA,"20140585","Tsuga canadensis 'Gracilis'","Tsuga canadensis 'Gracilis'","plant","15-Oct-14","from a cultivated plant not of known wild origin","Iseli Nursery","","","","",NA,"","","","","","","",".",".","","","","Gracilis'"
"441","Tsuga canadensis","Hemlock",NA,NA,NA,NA,NA,"20140581","Tsuga canadensis 'Ashfield Weeper'","Tsuga canadensis 'Ashfield Weeper'","plant","15-Oct-14","from a cultivated plant not of known wild origin","Iseli Nursery","","","","",NA,"","","","","","","",".",".","","","","Ashfield Weeper'"
"442","Tsuga canadensis","Hemlock",NA,NA,NA,NA,NA,"20140532","Tsuga canadensis","Tsuga canadensis","plant","15-Oct-14","from a cultivated plant not of known wild origin","Connon N NVK","","","","",NA,"","","","","","","",".",".","","","",""
"443","Tsuga canadensis","Hemlock",NA,NA,NA,NA,NA,"20140580","Tsuga canadensis 'Albospica'","Tsuga canadensis 'Albospica'","plant","15-Oct-14","from a cultivated plant not of known wild origin","Iseli Nursery","","","","",NA,"","","","","","","",".",".","","","","Albospica'"
"444","Tsuga canadensis","Hemlock",NA,NA,NA,NA,NA,"20190320","Tsuga canadensis 'Moon Frost'","Tsuga canadensis 'Moon Frost'","plant","05-Jun-19","from a cultivated plant not of known wild origin","Connon N NVK","","","","",NA,"","","","","","","",".",".","","","","Moon Frost'"
"445","Tsuga canadensis","Hemlock",NA,NA,NA,NA,NA,"20150598","Tsuga canadensis","Tsuga canadensis","plant","15-Aug-15","from a cultivated plant not of known wild origin","Connon N NVK","","","","",NA,"","","","","","","",".",".","","","",""
"446","Tsuga canadensis","Hemlock",NA,NA,NA,NA,NA,"20140584","Tsuga canadensis 'Golden Splendor'","Tsuga canadensis 'Golden Splendor'","plant","15-Oct-14","from a cultivated plant not of known wild origin","Iseli Nursery","","","","",NA,"","","","","","","",".",".","","","","Golden Splendor'"
"447","Tsuga canadensis","Hemlock",NA,NA,NA,NA,NA,"20150365","Tsuga canadensis 'Gentsch White'","Tsuga canadensis 'Gentsch White'","plant","15-Apr-15","from a cultivated plant not of known wild origin","Connon N NVK","","","","",NA,"","","","","","","",".",".","","","","Gentsch White'"
"448","Tsuga canadensis","Hemlock",NA,NA,NA,NA,NA,"980972","Tsuga canadensis","Tsuga canadensis","plant","09-Nov-98","from a cultivated plant not of known wild origin","Connon N NVK","","","","",NA,"","","","","","","",".",".","","","",""
"449","Tsuga canadensis","Hemlock",NA,NA,NA,NA,NA,"XX232","Tsuga canadensis","Tsuga canadensis","unknown propagule type","","uncertain","Unknown","","","","",NA,"","","","","","","",".",".","","","",""
"450","Tsuga canadensis","Hemlock",NA,NA,NA,NA,NA,"20140586","Tsuga canadensis 'Julianne'","Tsuga canadensis 'Kelsey's Weeping'","plant","15-Oct-14","from a cultivated plant not of known wild origin","Iseli Nursery","","","","",NA,"","","","","","","",".",".","","","","Julianne'"
"451","Tsuga canadensis","Hemlock",NA,NA,NA,NA,NA,"20140583","Tsuga canadensis 'Gentsch White'","Tsuga canadensis 'Gentsch White'","plant","15-Oct-14","from a cultivated plant not of known wild origin","Iseli Nursery","","","","",NA,"","","","","","","",".",".","","","","Gentsch White'"
"452","Tsuga canadensis","Hemlock",NA,NA,NA,NA,NA,"20080035","Tsuga canadensis 'Jervis'","Tsuga canadensis 'Jervis'","plant","02-Jun-08","from a cultivated plant not of known wild origin","Vineland N","","","","",NA,"","","","","","","",".",".","","","","Jervis'"
"453","Tsuga canadensis","Hemlock",NA,NA,NA,NA,NA,"54615","Tsuga canadensis 'Kingsville'","Tsuga canadensis 'Kingsville'","plant","","from a cultivated plant not of known wild origin","Kingsville N","","","","",NA,"","","","","","","",".",".","","","","Kingsville'"
"454","Tsuga canadensis","Hemlock",NA,NA,NA,NA,NA,"20170164","Tsuga canadensis","Tsuga canadensis","plant","15-Nov-16","from a cultivated plant not of known wild origin","Connon N NVK","","","","",NA,"","","","","","","",".",".","","","",""
"455","Tsuga canadensis","Hemlock",NA,NA,NA,NA,NA,"20140531","Tsuga canadensis","Tsuga canadensis","plant","15-Oct-14","from a cultivated plant not of known wild origin","Connon N NVK","","","","",NA,"","","","","","","",".",".","","","",""
"456","Tsuga canadensis","Hemlock",NA,NA,NA,NA,NA,"800405","Tsuga canadensis 'Calvert'","Tsuga canadensis 'Calvert'","unknown propagule type","","from a cultivated plant not of known wild origin","Unknown","","","","",NA,"","","","","","","",".",".","","","","Calvert'"
"457","Tsuga canadensis","Hemlock",NA,NA,NA,NA,NA,"20000128","Tsuga canadensis","Tsuga canadensis","plant","19-Nov-99","from a cultivated plant not of known wild origin","Connon N NVK","","","","",NA,"","","","","","","",".",".","","","",""
"458","Tsuga canadensis","Hemlock",NA,NA,NA,NA,NA,"20140587","Tsuga canadensis 'Moon Frost'","Tsuga canadensis 'Moon Frost'","plant","15-Oct-14","from a cultivated plant not of known wild origin","Iseli Nursery","","","","",NA,"","","","","","","",".",".","","","","Moon Frost'"
"459","Tsuga canadensis","Hemlock",NA,NA,NA,NA,NA,"820381","Tsuga canadensis","Tsuga canadensis","plant","","from a cultivated plant not of known wild origin","Connon N","","","","",NA,"","","","","","","",".",".","","","",""
"460","Tsuga canadensis","Hemlock",NA,NA,NA,NA,NA,"20140077","Tsuga canadensis 'Betty Rose'","Tsuga canadensis 'Betty Rose'","plant","16-May-14","from a cultivated plant not of known wild origin","Iseli Nursery","896006","","","",NA,"","","","","","","",".",".","","","","Betty Rose'"
"461","Tsuga canadensis","Hemlock",NA,NA,NA,NA,NA,"800409","Tsuga canadensis","Tsuga canadensis","plant","","from a cultivated plant not of known wild origin","Connon N","","","","",NA,"","","","","","","",".",".","","","",""
"462","Tsuga canadensis","Hemlock",NA,NA,NA,NA,NA,"20120596","Tsuga canadensis 'Cole's Prostrate'","Tsuga canadensis 'Cole's Prostrate'","plant","23-Aug-12","from a cultivated plant not of known wild origin","Connon N CVK","","","","",NA,"","","","","","","",".",".","","","","Cole's Prostrate'"
"463","Ulmus americana","Elm",NA,NA,NA,NA,NA,"75026","Ulmus americana","Ulmus americana","plant","","collected directly from wild; origin known","RBG","","","","",NA,"","","","","","","",".",".","","","",""
"464","Ulmus americana","Elm",NA,NA,NA,NA,NA,"20150565","Ulmus americana","White Elm","plant","09-Nov-15","from a cultivated plant not of known wild origin","U Guelph Arb","","","via a 'small time grower""","",NA,"","","","","","","",".",".","","","",""
"465","Vaccinium corymbosum","Bilberry","Tertiary","","",NA,"","20150083","Vaccinium corymbosum 'Bluecrop'","Vaccinium corymbosum 'Bluecrop'","plant","22-May-15","from a cultivated plant not of known wild origin","Humber N","","","","",NA,"","","","","","","",".",".","","","","Bluecrop'"
"466","Vaccinium corymbosum","Bilberry","Tertiary","","",NA,"","20150084","Vaccinium corymbosum 'Bluejay'","Vaccinium corymbosum 'Bluejay'","plant","22-May-15","from a cultivated plant not of known wild origin","Humber N","","","","",NA,"","","","","","","",".",".","","","","Bluejay'"
"467","Vaccinium corymbosum","Bilberry","Tertiary","","",NA,"","20150085","Vaccinium corymbosum 'Spartan'","Vaccinium corymbosum 'Spartan'","plant","22-May-15","from a cultivated plant not of known wild origin","Humber N","","","","",NA,"","","","","","","",".",".","","","","Spartan'"
"468","Viburnum acerifolium","Highbush cranberry",NA,NA,NA,NA,NA,"20080060","Viburnum acerifolium","Viburnum acerifolium","plant","03-Sep-08","from a cultivated plant not of known wild origin","Sheridan Nurseries:Grand Moraine",":",":",":","",NA,"","","","","","","",".",".","","","",""
"469","Viburnum cassinoides","Highbush cranberry",NA,NA,NA,NA,NA,"20080239","Viburnum cassinoides","Viburnum cassinoides","plant","17-Nov-08","from a cultivated plant not of known wild origin","Connon N NVK","","","","",NA,"","","","","","","",".",".","","","",""
"470","Viburnum cassinoides","Highbush cranberry",NA,NA,NA,NA,NA,"20150369","Viburnum cassinoides","Viburnum cassinoides","plant","15-Apr-15","from a cultivated plant not of known wild origin","Connon N NVK","","","","",NA,"","","","","","","",".",".","","","",""
"471","Viburnum dentatum","Highbush cranberry",NA,NA,NA,NA,NA,"830750","Viburnum dentatum","Viburnum dentatum","plant","06-Jul-83","from a cultivated plant not of known wild origin","RBG","800930","","","",NA,"","","","","","","",".",".","","","",""
"472","Viburnum dentatum","Highbush cranberry",NA,NA,NA,NA,NA,"930191","Viburnum dentatum","Viburnum dentatum","plant","15-May-93","from a cultivated plant not of known wild origin","Connon N NVK","","","","",NA,"","","","","","","",".",".","","","",""
"473","Viburnum dentatum","Highbush cranberry",NA,NA,NA,NA,NA,"940888","Viburnum dentatum","Viburnum dentatum","plant","10-Aug-94","from a cultivated plant not of known wild origin","Connon N NVK","","","","",NA,"","","","","","","",".",".","","","",""
"474","Viburnum lantana","Highbush cranberry",NA,NA,NA,NA,NA,"830739","Viburnum lantana","Viburnum lantana","plant","06-Jul-83","from a cultivated plant not of known wild origin","RBG","76402","","","",NA,"","","","","","","",".",".","","","",""
"475","Viburnum lantana","Highbush cranberry",NA,NA,NA,NA,NA,"20050004","Viburnum lantana 'Mohican'","Viburnum lantana 'Mohican'","plant","05-Jul-05","from a cultivated plant not of known wild origin","Connon N","","","","",NA,"","","","","","","",".",".","","","","Mohican'"
"476","Viburnum lantana","Highbush cranberry",NA,NA,NA,NA,NA,"63871","Viburnum lantana 'Aureum'","Viburnum lantana 'Aureum'","cutting","","from a cultivated plant not of known wild origin","RBG","63217","","","",NA,"","","","","","","",".",".","","","","Aureum'"
"477","Viburnum lantana","Highbush cranberry",NA,NA,NA,NA,NA,"63217","Viburnum lantana 'Aureum'","Viburnum lantana 'Aureum'","plant","","from a cultivated plant not of known wild origin","Sheridan Nurseries","","","","",NA,"","","","","","","",".",".","","","","Aureum'"
"478","Viburnum lantana","Highbush cranberry",NA,NA,NA,NA,NA,"780272","Viburnum lantana 'Mohican'","Viburnum lantana 'Mohican'","cutting","","from a cultivated plant not of known wild origin","RBG","67688","","","",NA,"","","","","","","",".",".","","","","Mohican'"
"479","Viburnum lantana","Highbush cranberry",NA,NA,NA,NA,NA,"20140616","Viburnum lantana 'Mohican'","Viburnum 'Mohican'","plant","15-Oct-14","from a cultivated plant not of known wild origin","Losely Nursery","","","","",NA,"","","","","","","",".",".","","","","Mohican'"
"480","Viburnum lantana","Highbush cranberry",NA,NA,NA,NA,NA,"830742","Viburnum lantana 'Aureum'","Viburnum lantana 'Aureum'","plant","06-Jul-83","from a cultivated plant not of known wild origin","RBG","63871","","","",NA,"","","","","","","",".",".","","","","Aureum'"
"481","Viburnum lentago","Highbush cranberry",NA,NA,NA,NA,NA,"930193","Viburnum lentago","Viburnum lentago","plant","15-May-93","from a cultivated plant not of known wild origin","Connon N NVK","","","","",NA,"","","","","","","",".",".","","","",""
"482","Viburnum lentago","Highbush cranberry",NA,NA,NA,NA,NA,"20050003","Viburnum lentago","Viburnum lentago","plant","05-Jul-05","from a cultivated plant not of known wild origin","Connon N","","","","",NA,"","","","","","","",".",".","","","",""
"483","Viburnum lentago","Highbush cranberry",NA,NA,NA,NA,NA,"800919","Viburnum lentago","Viburnum lentago","existing plant","","collected directly from wild; origin known","RBG","","","","",NA,"","","","","","","",".",".","","","",""
"484","Viburnum lentago","Highbush cranberry",NA,NA,NA,NA,NA,"790183","Viburnum lentago","Viburnum lentago","plant","","from a cultivated plant not of known wild origin","Connon N","","","","",NA,"","","","","","","",".",".","","","",""
"485","Viburnum lentago","Highbush cranberry",NA,NA,NA,NA,NA,"20140722","Viburnum lentago","Viburnum lentago","plant","15-Oct-14","from a cultivated plant not of known wild origin","Connon N NVK","","","","",NA,"","","","","","","",".",".","","","",""
"486","Viburnum lentago","Highbush cranberry",NA,NA,NA,NA,NA,"20080059","Viburnum lentago","Viburnum lentago","plant","12-Jun-08","from a cultivated plant not of known wild origin","Aldershot L:Sheridan Nurseries:Uxbridge","::","::","::","",NA,"","","","","","","",".",".","","","",""
"487","Viburnum rafinesquianum","Highbush cranberry",NA,NA,NA,NA,NA,"810656","Viburnum rafinesquianum","Viburnum rafinesquianum","unknown propagule type","","collected directly from wild; origin known","RBG","","","","",NA,"","","","","","","",".",".","","","",""
"488","Vitis riparia","Grape","","Graftstock","",NA,"","800920","Vitis riparia","Vitis riparia","existing plant","","collected directly from wild; origin known","RBG","","","","",NA,"","","","","","","",".",".","","","",""
"489","Zizania aquatica","Wild Rice","Secondary","","",NA,"","XA36098","Zizania aquatica","Zizania aquatica","plant","15-Jun-11","from a cultivated plant not of known wild origin","RBG - Natural Lands","","","","",NA,"","","","","","","",".",".","","","",""
"490","Zizania aquatica","Wild Rice","Secondary","","",NA,"","20150144","Zizania aquatica","Zizania aquatica","plant","15-Jul-11","uncertain","RBG - Natural Lands","","","","",NA,"","","","","","","",".",".","","","",""
